{"type":"FeatureCollection","features":[{"type":"Feature","id":"node/26862538","bbox":[11.19347,45.96363,11.19347,45.96363],"geometry":{"type":"Point","coordinates":[11.19347,45.96363]},"properties":{"name":"Becco di Filadonna","lengthKm":0,"anchor":[11.19347,45.96363],"wikidata":"Q813568","ele":2150}},{"type":"Feature","id":"node/26862689","bbox":[10.89991,46.17946,10.89991,46.17946],"geometry":{"type":"Point","coordinates":[10.89991,46.17946]},"properties":{"name":"Cima Brenta","lengthKm":0,"anchor":[10.89991,46.17946],"wikidata":"Q221844","ele":3151}},{"type":"Feature","id":"node/26862693","bbox":[11.60529,46.17662,11.60529,46.17662],"geometry":{"type":"Point","coordinates":[11.60529,46.17662]},"properties":{"name":"Cima d'Asta","lengthKm":0,"anchor":[11.60529,46.17662],"wikidata":"Q501840","ele":2847}},{"type":"Feature","id":"node/26862707","bbox":[11.17654,45.79223,11.17654,45.79223],"geometry":{"type":"Point","coordinates":[11.17654,45.79223]},"properties":{"name":"Cima Palon","lengthKm":0,"anchor":[11.17654,45.79223],"wikidata":"Q3676757","ele":2232}},{"type":"Feature","id":"node/26862710","bbox":[10.66412,46.21993,10.66412,46.21993],"geometry":{"type":"Point","coordinates":[10.66412,46.21993]},"properties":{"name":"Cima Presanella","lengthKm":0,"anchor":[10.66412,46.21993],"wikidata":"Q2094363","ele":3557}},{"type":"Feature","id":"node/26862712","bbox":[10.87113,46.15652,10.87113,46.15652],"geometry":{"type":"Point","coordinates":[10.87113,46.15652]},"properties":{"name":"Cima Tosa","lengthKm":0,"anchor":[10.87113,46.15652],"wikidata":"Q594670","ele":3136}},{"type":"Feature","id":"node/26862734","bbox":[11.03177,45.98805,11.03177,45.98805],"geometry":{"type":"Point","coordinates":[11.03177,45.98805]},"properties":{"name":"Monte Cornetto","lengthKm":0,"anchor":[11.03177,45.98805],"wikidata":"Q1478747","ele":2178}},{"type":"Feature","id":"node/530831149","bbox":[11.17619,45.74698,11.17619,45.74698],"geometry":{"type":"Point","coordinates":[11.17619,45.74698]},"properties":{"name":"Monte Cornetto","lengthKm":0,"anchor":[11.17619,45.74698],"wikidata":"Q2737193","ele":1899}},{"type":"Feature","id":"node/26863478","bbox":[11.18772,46.0319,11.18772,46.0319],"geometry":{"type":"Point","coordinates":[11.18772,46.0319]},"properties":{"name":"La Marzola","lengthKm":0,"anchor":[11.18772,46.0319],"wikidata":"Q3850579","ele":1737}},{"type":"Feature","id":"node/26863482","bbox":[11.03744,46.14327,11.03744,46.14327],"geometry":{"type":"Point","coordinates":[11.03744,46.14327]},"properties":{"name":"Paganella","lengthKm":0,"anchor":[11.03744,46.14327],"wikidata":"Q2046117","ele":2125}},{"type":"Feature","id":"node/26863784","bbox":[10.88884,45.81019,10.88884,45.81019],"geometry":{"type":"Point","coordinates":[10.88884,45.81019]},"properties":{"name":"Monte Altissimo di Nago","lengthKm":0,"anchor":[10.88884,45.81019],"wikidata":"Q2448521","ele":2079}},{"type":"Feature","id":"node/26863801","bbox":[10.69833,45.93859,10.69833,45.93859],"geometry":{"type":"Point","coordinates":[10.69833,45.93859]},"properties":{"name":"Monte Cadria","lengthKm":0,"anchor":[10.69833,45.93859],"wikidata":"Q1545440","ele":2250}},{"type":"Feature","id":"node/26863811","bbox":[10.6412,45.80218,10.6412,45.80218],"geometry":{"type":"Point","coordinates":[10.6412,45.80218]},"properties":{"name":"Monte Caplone","lengthKm":0,"anchor":[10.6412,45.80218],"wikidata":"Q3861306","ele":1976}},{"type":"Feature","id":"node/26863836","bbox":[11.32382,46.28988,11.32382,46.28988],"geometry":{"type":"Point","coordinates":[11.32382,46.28988]},"properties":{"name":"Monte Corno - Trudner Horn","lengthKm":0,"anchor":[11.32382,46.28988],"wikidata":"Q2456159","ele":1781}},{"type":"Feature","id":"node/26863901","bbox":[11.58167,46.04556,11.58167,46.04556],"geometry":{"type":"Point","coordinates":[11.58167,46.04556]},"properties":{"name":"Monte Mezza","lengthKm":0,"anchor":[11.58167,46.04556],"wikidata":"Q31635559","ele":1678}},{"type":"Feature","id":"node/26863994","bbox":[11.74929,46.13556,11.74929,46.13556],"geometry":{"type":"Point","coordinates":[11.74929,46.13556]},"properties":{"name":"Monte Totoga","lengthKm":0,"anchor":[11.74929,46.13556],"wikidata":"Q3862083","ele":1705}},{"type":"Feature","id":"node/253473249","bbox":[11.67511,46.33767,11.67511,46.33767],"geometry":{"type":"Point","coordinates":[11.67511,46.33767]},"properties":{"name":"Viezzena - Viesena","lengthKm":0,"anchor":[11.67511,46.33767],"wikidata":"Q18785678","ele":2491}},{"type":"Feature","id":"node/267976756","bbox":[11.51231,46.34585,11.51231,46.34585],"geometry":{"type":"Point","coordinates":[11.51231,46.34585]},"properties":{"name":"Pala di Santa - Pala de Zanca","lengthKm":0,"anchor":[11.51231,46.34585],"wikidata":"Q146899","ele":2493}},{"type":"Feature","id":"node/281163095","bbox":[11.51075,46.19942,11.51075,46.19942],"geometry":{"type":"Point","coordinates":[11.51075,46.19942]},"properties":{"name":"Cima delle Stellune","lengthKm":0,"anchor":[11.51075,46.19942],"wikidata":"Q17625363","ele":2605}},{"type":"Feature","id":"node/281996516","bbox":[11.39249,46.16935,11.39249,46.16935],"geometry":{"type":"Point","coordinates":[11.39249,46.16935]},"properties":{"name":"Monte Croce","lengthKm":0,"anchor":[11.39249,46.16935],"wikidata":"Q3861496","ele":2489}},{"type":"Feature","id":"node/282201814","bbox":[11.50355,46.24137,11.50355,46.24137],"geometry":{"type":"Point","coordinates":[11.50355,46.24137]},"properties":{"name":"Paion del Cermis","lengthKm":0,"anchor":[11.50355,46.24137],"wikidata":"Q2576260","ele":2229}},{"type":"Feature","id":"node/282202872","bbox":[11.55888,46.22531,11.55888,46.22531],"geometry":{"type":"Point","coordinates":[11.55888,46.22531]},"properties":{"name":"Cima Litegosa","lengthKm":0,"anchor":[11.55888,46.22531],"wikidata":"Q3676741","ele":2549}},{"type":"Feature","id":"node/285976286","bbox":[11.28941,46.13181,11.28941,46.13181],"geometry":{"type":"Point","coordinates":[11.28941,46.13181]},"properties":{"name":"Dosso di Costalta","lengthKm":0,"anchor":[11.28941,46.13181],"wikidata":"Q3714463","ele":1955}},{"type":"Feature","id":"node/286281497","bbox":[11.57504,46.38107,11.57504,46.38107],"geometry":{"type":"Point","coordinates":[11.57504,46.38107]},"properties":{"name":"Cimon del Latemar - Diamantiditurm","lengthKm":0,"anchor":[11.57504,46.38107],"wikidata":"Q593456","ele":2842}},{"type":"Feature","id":"node/289618116","bbox":[11.11622,45.90043,11.11622,45.90043],"geometry":{"type":"Point","coordinates":[11.11622,45.90043]},"properties":{"name":"Monte Finonchio","lengthKm":0,"anchor":[11.11622,45.90043],"wikidata":"Q3861543","ele":1603}},{"type":"Feature","id":"node/297049604","bbox":[10.87459,45.88498,10.87459,45.88498],"geometry":{"type":"Point","coordinates":[10.87459,45.88498]},"properties":{"name":"Monte Brione","lengthKm":0,"anchor":[10.87459,45.88498],"wikidata":"Q1665141","ele":376}},{"type":"Feature","id":"node/298291974","bbox":[10.58592,46.13535,10.58592,46.13535],"geometry":{"type":"Point","coordinates":[10.58592,46.13535]},"properties":{"name":"Corno di Cavento","lengthKm":0,"anchor":[10.58592,46.13535],"wikidata":"Q3693772","ele":3406}},{"type":"Feature","id":"node/301563250","bbox":[10.83367,45.95522,10.83367,45.95522],"geometry":{"type":"Point","coordinates":[10.83367,45.95522]},"properties":{"name":"Monte Misone","lengthKm":0,"anchor":[10.83367,45.95522],"wikidata":"Q31635247","ele":1803}},{"type":"Feature","id":"node/304859594","bbox":[11.13009,45.72396,11.13009,45.72396],"geometry":{"type":"Point","coordinates":[11.13009,45.72396]},"properties":{"name":"Cima Carega","lengthKm":0,"anchor":[11.13009,45.72396],"wikidata":"Q3676726","ele":2259}},{"type":"Feature","id":"node/307253108","bbox":[10.96247,46.17768,10.96247,46.17768],"geometry":{"type":"Point","coordinates":[10.96247,46.17768]},"properties":{"name":"Pizzo Gallino","lengthKm":0,"anchor":[10.96247,46.17768],"wikidata":"Q3905936","ele":2442}},{"type":"Feature","id":"node/307287040","bbox":[10.6223,46.44813,10.6223,46.44813],"geometry":{"type":"Point","coordinates":[10.6223,46.44813]},"properties":{"name":"Südliche Zufallspitze - Cevedale II","lengthKm":0,"anchor":[10.6223,46.44813],"wikidata":"Q18711086","ele":3757}},{"type":"Feature","id":"node/307287868","bbox":[10.68938,46.45378,10.68938,46.45378],"geometry":{"type":"Point","coordinates":[10.68938,46.45378]},"properties":{"name":"Cima Venezia - Veneziaspitze","lengthKm":0,"anchor":[10.68938,46.45378],"wikidata":"Q2512894","ele":3386}},{"type":"Feature","id":"node/307292232","bbox":[11.8283,46.50892,11.8283,46.50892],"geometry":{"type":"Point","coordinates":[11.8283,46.50892]},"properties":{"name":"Piz Boè","lengthKm":0,"anchor":[11.8283,46.50892],"wikidata":"Q1478439","ele":3152}},{"type":"Feature","id":"node/309514870","bbox":[11.06889,45.7994,11.06889,45.7994],"geometry":{"type":"Point","coordinates":[11.06889,45.7994]},"properties":{"name":"Monte Zugna","lengthKm":0,"anchor":[11.06889,45.7994],"wikidata":"Q31638098","ele":1857}},{"type":"Feature","id":"node/310199149","bbox":[10.96369,45.92013,10.96369,45.92013],"geometry":{"type":"Point","coordinates":[10.96369,45.92013]},"properties":{"name":"Monte Stivo","lengthKm":0,"anchor":[10.96369,45.92013],"wikidata":"Q1945934","ele":2054}},{"type":"Feature","id":"node/311844814","bbox":[11.34262,45.97905,11.34262,45.97905],"geometry":{"type":"Point","coordinates":[11.34262,45.97905]},"properties":{"name":"Cima Vezzena","lengthKm":0,"anchor":[11.34262,45.97905],"wikidata":"Q3676777","ele":1908}},{"type":"Feature","id":"node/313155440","bbox":[10.97097,45.88271,10.97097,45.88271],"geometry":{"type":"Point","coordinates":[10.97097,45.88271]},"properties":{"name":"Monte Biaena","lengthKm":0,"anchor":[10.97097,45.88271],"wikidata":"Q3861230","ele":1618}},{"type":"Feature","id":"node/374292023","bbox":[11.1434,46.09812,11.1434,46.09812],"geometry":{"type":"Point","coordinates":[11.1434,46.09812]},"properties":{"name":"Monte Calisio","lengthKm":0,"anchor":[11.1434,46.09812],"wikidata":"Q3861272","ele":1096}},{"type":"Feature","id":"node/982571041","bbox":[10.97925,46.27673,10.97925,46.27673],"geometry":{"type":"Point","coordinates":[10.97925,46.27673]},"properties":{"name":"Monte Corno","lengthKm":0,"anchor":[10.97925,46.27673],"wikidata":"Q31662203","ele":1961}},{"type":"Feature","id":"node/419891128","bbox":[11.75271,46.35422,11.75271,46.35422],"geometry":{"type":"Point","coordinates":[11.75271,46.35422]},"properties":{"name":"Cima Bocche - Cimon de Boce","lengthKm":0,"anchor":[11.75271,46.35422],"wikidata":"Q3676721","ele":2745}},{"type":"Feature","id":"node/429615595","bbox":[10.89624,46.23133,10.89624,46.23133],"geometry":{"type":"Point","coordinates":[10.89624,46.23133]},"properties":{"name":"Pietra Grande","lengthKm":0,"anchor":[10.89624,46.23133],"wikidata":"Q692404","ele":2935}},{"type":"Feature","id":"node/450174246","bbox":[10.7662,45.9059,10.7662,45.9059],"geometry":{"type":"Point","coordinates":[10.7662,45.9059]},"properties":{"name":"Cima Parì","lengthKm":0,"anchor":[10.7662,45.9059],"wikidata":"Q31635272","ele":1991}},{"type":"Feature","id":"node/457518119","bbox":[11.17598,45.79432,11.17598,45.79432],"geometry":{"type":"Point","coordinates":[11.17598,45.79432]},"properties":{"name":"Dente Italiano","lengthKm":0,"anchor":[11.17598,45.79432],"wikidata":"Q3705524","ele":2220}},{"type":"Feature","id":"node/472136733","bbox":[11.6199,46.42542,11.6199,46.42542],"geometry":{"type":"Point","coordinates":[11.6199,46.42542]},"properties":{"name":"Roda di Vaèl - Rotwand","lengthKm":0,"anchor":[11.6199,46.42542],"wikidata":"Q2169121","ele":2806}},{"type":"Feature","id":"node/482869268","bbox":[11.35127,46.07612,11.35127,46.07612],"geometry":{"type":"Point","coordinates":[11.35127,46.07612]},"properties":{"name":"Fravort","lengthKm":0,"anchor":[11.35127,46.07612],"wikidata":"Q3861559","ele":2347}},{"type":"Feature","id":"node/482870631","bbox":[11.3344,46.04999,11.3344,46.04999],"geometry":{"type":"Point","coordinates":[11.3344,46.04999]},"properties":{"name":"Cima Panarotta","lengthKm":0,"anchor":[11.3344,46.04999],"wikidata":"Q20009995","ele":2002}},{"type":"Feature","id":"node/497543209","bbox":[11.74862,46.49534,11.74862,46.49534],"geometry":{"type":"Point","coordinates":[11.74862,46.49534]},"properties":{"name":"Col Rodela","lengthKm":0,"anchor":[11.74862,46.49534],"wikidata":"Q3682472","ele":2484}},{"type":"Feature","id":"node/500343065","bbox":[11.87343,46.25107,11.87343,46.25107],"geometry":{"type":"Point","coordinates":[11.87343,46.25107]},"properties":{"name":"Cima La Fradusta","lengthKm":0,"anchor":[11.87343,46.25107],"wikidata":"Q3749209","ele":2939}},{"type":"Feature","id":"node/517874444","bbox":[10.611,45.86576,10.611,45.86576],"geometry":{"type":"Point","coordinates":[10.611,45.86576]},"properties":{"name":"Monte Stigolo","lengthKm":0,"anchor":[10.611,45.86576],"wikidata":"Q31637550","ele":1699}},{"type":"Feature","id":"node/523391623","bbox":[10.48346,46.02168,10.48346,46.02168],"geometry":{"type":"Point","coordinates":[10.48346,46.02168]},"properties":{"name":"Monte Re di Castello","lengthKm":0,"anchor":[10.48346,46.02168],"wikidata":"Q3861895","ele":2889}},{"type":"Feature","id":"node/529691501","bbox":[10.57045,46.22314,10.57045,46.22314],"geometry":{"type":"Point","coordinates":[10.57045,46.22314]},"properties":{"name":"Corno di Lago Scuro","lengthKm":0,"anchor":[10.57045,46.22314],"wikidata":"Q31635479","ele":3164}},{"type":"Feature","id":"node/529691649","bbox":[10.61634,46.3886,10.61634,46.3886],"geometry":{"type":"Point","coordinates":[10.61634,46.3886]},"properties":{"name":"Punta Taviela","lengthKm":0,"anchor":[10.61634,46.3886],"wikidata":"Q3925726","ele":3612}},{"type":"Feature","id":"node/533994077","bbox":[10.69904,45.84172,10.69904,45.84172],"geometry":{"type":"Point","coordinates":[10.69904,45.84172]},"properties":{"name":"Monte Tremalzo","lengthKm":0,"anchor":[10.69904,45.84172],"wikidata":"Q3862087","ele":1973}},{"type":"Feature","id":"node/534251275","bbox":[11.85135,46.43455,11.85135,46.43455],"geometry":{"type":"Point","coordinates":[11.85135,46.43455]},"properties":{"name":"Punta Penia","lengthKm":0,"anchor":[11.85135,46.43455],"wikidata":"Q3925700","ele":3343}},{"type":"Feature","id":"node/534680004","bbox":[10.85159,46.17079,10.85159,46.17079],"geometry":{"type":"Point","coordinates":[10.85159,46.17079]},"properties":{"name":"Cima Fracinglo","lengthKm":0,"anchor":[10.85159,46.17079],"wikidata":"Q31357046","ele":2673}},{"type":"Feature","id":"node/534683618","bbox":[10.90505,46.19292,10.90505,46.19292],"geometry":{"type":"Point","coordinates":[10.90505,46.19292]},"properties":{"name":"Cima Falkner","lengthKm":0,"anchor":[10.90505,46.19292],"wikidata":"Q1092008","ele":2990}},{"type":"Feature","id":"node/534689393","bbox":[10.86893,46.15056,10.86893,46.15056],"geometry":{"type":"Point","coordinates":[10.86893,46.15056]},"properties":{"name":"Cima d'Ambiez","lengthKm":0,"anchor":[10.86893,46.15056],"wikidata":"Q1092019","ele":3102}},{"type":"Feature","id":"node/534689463","bbox":[10.88375,46.15853,10.88375,46.15853],"geometry":{"type":"Point","coordinates":[10.88375,46.15853]},"properties":{"name":"Cima Margherita","lengthKm":0,"anchor":[10.88375,46.15853],"wikidata":"Q23072019","ele":2845}},{"type":"Feature","id":"node/534784248","bbox":[10.89416,46.16197,10.89416,46.16197],"geometry":{"type":"Point","coordinates":[10.89416,46.16197]},"properties":{"name":"Campanile Basso","lengthKm":0,"anchor":[10.89416,46.16197],"wikidata":"Q652600","ele":2877}},{"type":"Feature","id":"node/534784314","bbox":[10.89355,46.16428,10.89355,46.16428],"geometry":{"type":"Point","coordinates":[10.89355,46.16428]},"properties":{"name":"Campanile Alto","lengthKm":0,"anchor":[10.89355,46.16428],"wikidata":"Q3651810","ele":2937}},{"type":"Feature","id":"node/534785516","bbox":[10.89658,46.16036,10.89658,46.16036],"geometry":{"type":"Point","coordinates":[10.89658,46.16036]},"properties":{"name":"Cima Brenta Alta","lengthKm":0,"anchor":[10.89658,46.16036],"wikidata":"Q1091996","ele":2964}},{"type":"Feature","id":"node/534789871","bbox":[10.90521,46.19833,10.90521,46.19833],"geometry":{"type":"Point","coordinates":[10.90521,46.19833]},"properties":{"name":"Cima Grostè","lengthKm":0,"anchor":[10.90521,46.19833],"wikidata":"Q1092016","ele":2901}},{"type":"Feature","id":"node/534795784","bbox":[10.89582,46.16714,10.89582,46.16714],"geometry":{"type":"Point","coordinates":[10.89582,46.16714]},"properties":{"name":"Torre di Brenta","lengthKm":0,"anchor":[10.89582,46.16714],"wikidata":"Q573567","ele":3014}},{"type":"Feature","id":"node/560520571","bbox":[10.65586,46.20486,10.65586,46.20486],"geometry":{"type":"Point","coordinates":[10.65586,46.20486]},"properties":{"name":"Ago di Nardis","lengthKm":0,"anchor":[10.65586,46.20486],"wikidata":"Q3606683","ele":3291}},{"type":"Feature","id":"node/722739688","bbox":[11.82397,46.28491,11.82397,46.28491],"geometry":{"type":"Point","coordinates":[11.82397,46.28491]},"properties":{"name":"Cimon della Pala","lengthKm":0,"anchor":[11.82397,46.28491],"wikidata":"Q2523107","ele":3184}},{"type":"Feature","id":"node/741278255","bbox":[11.78841,46.12935,11.78841,46.12935],"geometry":{"type":"Point","coordinates":[11.78841,46.12935]},"properties":{"name":"Monte Vederna","lengthKm":0,"anchor":[11.78841,46.12935],"wikidata":"Q3862110","ele":1584}},{"type":"Feature","id":"node/747055529","bbox":[10.77265,45.94819,10.77265,45.94819],"geometry":{"type":"Point","coordinates":[10.77265,45.94819]},"properties":{"name":"Monte Tofino","lengthKm":0,"anchor":[10.77265,45.94819],"wikidata":"Q3862073","ele":2151}},{"type":"Feature","id":"node/834690421","bbox":[10.90177,46.18731,10.90177,46.18731],"geometry":{"type":"Point","coordinates":[10.90177,46.18731]},"properties":{"name":"Cima Sella","lengthKm":0,"anchor":[10.90177,46.18731],"wikidata":"Q674220","ele":2917}},{"type":"Feature","id":"node/858400926","bbox":[10.96912,45.77077,10.96912,45.77077],"geometry":{"type":"Point","coordinates":[10.96912,45.77077]},"properties":{"name":"Monte Vignola","lengthKm":0,"anchor":[10.96912,45.77077],"wikidata":"Q31640401","ele":1606}},{"type":"Feature","id":"node/875513756","bbox":[11.84615,46.2323,11.84615,46.2323],"geometry":{"type":"Point","coordinates":[11.84615,46.2323]},"properties":{"name":"Cima della Madonna","lengthKm":0,"anchor":[11.84615,46.2323],"wikidata":"Q1092013","ele":2752}},{"type":"Feature","id":"node/898165602","bbox":[10.63298,46.40155,10.63298,46.40155],"geometry":{"type":"Point","coordinates":[10.63298,46.40155]},"properties":{"name":"Monte Vioz","lengthKm":0,"anchor":[10.63298,46.40155],"wikidata":"Q835421","ele":3645}},{"type":"Feature","id":"node/903721885","bbox":[11.77679,46.2787,11.77679,46.2787],"geometry":{"type":"Point","coordinates":[11.77679,46.2787]},"properties":{"name":"Cavallazza","lengthKm":0,"anchor":[11.77679,46.2787],"wikidata":"Q3663908","ele":2326}},{"type":"Feature","id":"node/1290748574","bbox":[11.80909,46.53142,11.80909,46.53142],"geometry":{"type":"Point","coordinates":[11.80909,46.53142]},"properties":{"name":"Sass dai Ciamorces","lengthKm":0,"anchor":[11.80909,46.53142],"wikidata":"Q31645297","ele":2999}},{"type":"Feature","id":"node/1331070286","bbox":[11.55878,46.32654,11.55878,46.32654],"geometry":{"type":"Point","coordinates":[11.55878,46.32654]},"properties":{"name":"Monte Agnello - Cimòn de Tresca","lengthKm":0,"anchor":[11.55878,46.32654],"wikidata":"Q943539","ele":2361}},{"type":"Feature","id":"node/1389912649","bbox":[10.92766,46.03149,10.92766,46.03149],"geometry":{"type":"Point","coordinates":[10.92766,46.03149]},"properties":{"name":"Monte Casale","lengthKm":0,"anchor":[10.92766,46.03149],"wikidata":"Q1506899","ele":1630}},{"type":"Feature","id":"node/1414854971","bbox":[10.94371,46.31477,10.94371,46.31477],"geometry":{"type":"Point","coordinates":[10.94371,46.31477]},"properties":{"name":"Monte Peller","lengthKm":0,"anchor":[10.94371,46.31477],"wikidata":"Q3861821","ele":2320}},{"type":"Feature","id":"node/1434836595","bbox":[11.12336,45.81172,11.12336,45.81172],"geometry":{"type":"Point","coordinates":[11.12336,45.81172]},"properties":{"name":"Corno Battisti","lengthKm":0,"anchor":[11.12336,45.81172],"wikidata":"Q3861483","ele":1778}},{"type":"Feature","id":"node/1589793262","bbox":[11.12166,46.2493,11.12166,46.2493],"geometry":{"type":"Point","coordinates":[11.12166,46.2493]},"properties":{"name":"Cima Monticello","lengthKm":0,"anchor":[11.12166,46.2493],"wikidata":"Q20999749","ele":1856}},{"type":"Feature","id":"node/1589793263","bbox":[11.1341,46.25998,11.1341,46.25998],"geometry":{"type":"Point","coordinates":[11.1341,46.25998]},"properties":{"name":"Cima Roccapiana","lengthKm":0,"anchor":[11.1341,46.25998],"wikidata":"Q3676764","ele":1874}},{"type":"Feature","id":"node/1641022421","bbox":[11.21667,46.43875,11.21667,46.43875],"geometry":{"type":"Point","coordinates":[11.21667,46.43875]},"properties":{"name":"Penegal","lengthKm":0,"anchor":[11.21667,46.43875],"wikidata":"Q494935","ele":1737}},{"type":"Feature","id":"node/1680565580","bbox":[11.35885,46.09289,11.35885,46.09289],"geometry":{"type":"Point","coordinates":[11.35885,46.09289]},"properties":{"name":"Monte Gronlait","lengthKm":0,"anchor":[11.35885,46.09289],"wikidata":"Q31634614","ele":2383}},{"type":"Feature","id":"node/1775976838","bbox":[11.20948,46.4944,11.20948,46.4944],"geometry":{"type":"Point","coordinates":[11.20948,46.4944]},"properties":{"name":"Gantkofel - Macaion","lengthKm":0,"anchor":[11.20948,46.4944],"wikidata":"Q499264","ele":1866}},{"type":"Feature","id":"node/1819124632","bbox":[11.85032,46.25375,11.85032,46.25375],"geometry":{"type":"Point","coordinates":[11.85032,46.25375]},"properties":{"name":"Pala di San Martino","lengthKm":0,"anchor":[11.85032,46.25375],"wikidata":"Q1318808","ele":2982}},{"type":"Feature","id":"node/1819124633","bbox":[11.84873,46.2326,11.84873,46.2326],"geometry":{"type":"Point","coordinates":[11.84873,46.2326]},"properties":{"name":"Sass Maòr","lengthKm":0,"anchor":[11.84873,46.2326],"wikidata":"Q1591759","ele":2812}},{"type":"Feature","id":"node/1820820055","bbox":[11.38126,46.18514,11.38126,46.18514],"geometry":{"type":"Point","coordinates":[11.38126,46.18514]},"properties":{"name":"Monte Fregasoga","lengthKm":0,"anchor":[11.38126,46.18514],"wikidata":"Q24933898","ele":2447}},{"type":"Feature","id":"node/1838692508","bbox":[10.5961,46.10808,10.5961,46.10808],"geometry":{"type":"Point","coordinates":[10.5961,46.10808]},"properties":{"name":"Carè Alto","lengthKm":0,"anchor":[10.5961,46.10808],"wikidata":"Q669567","ele":3465}},{"type":"Feature","id":"node/1876585806","bbox":[10.7969,46.44613,10.7969,46.44613],"geometry":{"type":"Point","coordinates":[10.7969,46.44613]},"properties":{"name":"Gleck - Collecchio","lengthKm":0,"anchor":[10.7969,46.44613],"wikidata":"Q20999861","ele":2957}},{"type":"Feature","id":"node/1876586896","bbox":[10.68288,46.44975,10.68288,46.44975],"geometry":{"type":"Point","coordinates":[10.68288,46.44975]},"properties":{"name":"Köllkuppe - Cima Marmotta","lengthKm":0,"anchor":[10.68288,46.44975],"wikidata":"Q1092002","ele":3346}},{"type":"Feature","id":"node/1876587815","bbox":[10.7166,46.46121,10.7166,46.46121],"geometry":{"type":"Point","coordinates":[10.7166,46.46121]},"properties":{"name":"Hintere Rotspitze - Cima Rossa di Saent","lengthKm":0,"anchor":[10.7166,46.46121],"wikidata":"Q1619669","ele":3347}},{"type":"Feature","id":"node/1889476248","bbox":[11.68399,46.26076,11.68399,46.26076],"geometry":{"type":"Point","coordinates":[11.68399,46.26076]},"properties":{"name":"Cima di Cece - Cimon de Sés","lengthKm":0,"anchor":[11.68399,46.26076],"wikidata":"Q3676819","ele":2754}},{"type":"Feature","id":"node/1970751374","bbox":[10.93791,46.46695,10.93791,46.46695],"geometry":{"type":"Point","coordinates":[10.93791,46.46695]},"properties":{"name":"Stübele - Cima Stubele","lengthKm":0,"anchor":[10.93791,46.46695],"wikidata":"Q3676768","ele":2650}},{"type":"Feature","id":"node/2023277901","bbox":[11.83202,46.29765,11.83202,46.29765],"geometry":{"type":"Point","coordinates":[11.83202,46.29765]},"properties":{"name":"Cima dei Bureloni","lengthKm":0,"anchor":[11.83202,46.29765],"wikidata":"Q3676783","ele":3130}},{"type":"Feature","id":"node/2084543779","bbox":[11.05314,46.41873,11.05314,46.41873],"geometry":{"type":"Point","coordinates":[11.05314,46.41873]},"properties":{"name":"Monte Ozol","lengthKm":0,"anchor":[11.05314,46.41873],"wikidata":"Q3861802","ele":1566}},{"type":"Feature","id":"node/2143346718","bbox":[11.8497,46.24843,11.8497,46.24843],"geometry":{"type":"Point","coordinates":[11.8497,46.24843]},"properties":{"name":"Cima Pradidali","lengthKm":0,"anchor":[11.8497,46.24843],"wikidata":"Q1030232","ele":2731}},{"type":"Feature","id":"node/2143358549","bbox":[11.8637,46.24395,11.8637,46.24395],"geometry":{"type":"Point","coordinates":[11.8637,46.24395]},"properties":{"name":"Cima Canali","lengthKm":0,"anchor":[11.8637,46.24395],"wikidata":"Q1091999","ele":2900}},{"type":"Feature","id":"node/2371033644","bbox":[10.57397,46.06186,10.57397,46.06186],"geometry":{"type":"Point","coordinates":[10.57397,46.06186]},"properties":{"name":"Cima Cop di Breguzzo","lengthKm":0,"anchor":[10.57397,46.06186],"wikidata":"Q31635170","ele":3003}},{"type":"Feature","id":"node/2371033650","bbox":[10.57127,46.02422,10.57127,46.02422],"geometry":{"type":"Point","coordinates":[10.57127,46.02422]},"properties":{"name":"Cima Valbona","lengthKm":0,"anchor":[10.57127,46.02422],"wikidata":"Q31635402","ele":2889}},{"type":"Feature","id":"node/2413005374","bbox":[10.94133,46.16948,10.94133,46.16948],"geometry":{"type":"Point","coordinates":[10.94133,46.16948]},"properties":{"name":"Croz dell'Altissimo","lengthKm":0,"anchor":[10.94133,46.16948],"wikidata":"Q3698738","ele":2339}},{"type":"Feature","id":"node/2606944989","bbox":[11.83213,46.4424,11.83213,46.4424],"geometry":{"type":"Point","coordinates":[11.83213,46.4424]},"properties":{"name":"Gran Vernel","lengthKm":0,"anchor":[11.83213,46.4424],"wikidata":"Q2146692","ele":3210}},{"type":"Feature","id":"node/2668495431","bbox":[10.56753,46.1704,10.56753,46.1704],"geometry":{"type":"Point","coordinates":[10.56753,46.1704]},"properties":{"name":"Lobbia Alta","lengthKm":0,"anchor":[10.56753,46.1704],"wikidata":"Q3835938","ele":3196}},{"type":"Feature","id":"node/2823357290","bbox":[10.61042,46.22386,10.61042,46.22386],"geometry":{"type":"Point","coordinates":[10.61042,46.22386]},"properties":{"name":"Cima Busazza","lengthKm":0,"anchor":[10.61042,46.22386],"wikidata":"Q31637837","ele":3325}},{"type":"Feature","id":"node/2926157214","bbox":[11.13624,45.70193,11.13624,45.70193],"geometry":{"type":"Point","coordinates":[11.13624,45.70193]},"properties":{"name":"Monte Plische","lengthKm":0,"anchor":[11.13624,45.70193],"wikidata":"Q3861853","ele":1991}},{"type":"Feature","id":"node/3016351063","bbox":[10.90368,46.12403,10.90368,46.12403],"geometry":{"type":"Point","coordinates":[10.90368,46.12403]},"properties":{"name":"Cima di Ghez","lengthKm":0,"anchor":[10.90368,46.12403],"wikidata":"Q31356213","ele":2713}},{"type":"Feature","id":"node/3052528852","bbox":[10.86986,46.16162,10.86986,46.16162],"geometry":{"type":"Point","coordinates":[10.86986,46.16162]},"properties":{"name":"Crozzon di Brenta","lengthKm":0,"anchor":[10.86986,46.16162],"wikidata":"Q384216","ele":3130}},{"type":"Feature","id":"node/3060883519","bbox":[11.80892,46.40623,11.80892,46.40623],"geometry":{"type":"Point","coordinates":[11.80892,46.40623]},"properties":{"name":"Cima dell'Uomo","lengthKm":0,"anchor":[11.80892,46.40623],"wikidata":"Q31642128","ele":3010}},{"type":"Feature","id":"node/3060885648","bbox":[11.84036,46.41892,11.84036,46.41892],"geometry":{"type":"Point","coordinates":[11.84036,46.41892]},"properties":{"name":"Sasso Vernale","lengthKm":0,"anchor":[11.84036,46.41892],"wikidata":"Q3950688","ele":3058}},{"type":"Feature","id":"node/3069083846","bbox":[10.95087,46.2127,10.95087,46.2127],"geometry":{"type":"Point","coordinates":[10.95087,46.2127]},"properties":{"name":"Cima Santa Maria","lengthKm":0,"anchor":[10.95087,46.2127],"wikidata":"Q31356730","ele":2678}},{"type":"Feature","id":"node/3092059364","bbox":[11.3987,46.12799,11.3987,46.12799],"geometry":{"type":"Point","coordinates":[11.3987,46.12799]},"properties":{"name":"Cima di Sette Selle","lengthKm":0,"anchor":[11.3987,46.12799],"wikidata":"Q3676766","ele":2396}},{"type":"Feature","id":"node/3191416744","bbox":[11.5334,46.2109,11.5334,46.2109],"geometry":{"type":"Point","coordinates":[11.5334,46.2109]},"properties":{"name":"Cimon de le Sute","lengthKm":0,"anchor":[11.5334,46.2109],"wikidata":"Q30888454","ele":2616}},{"type":"Feature","id":"node/3452775202","bbox":[11.80799,46.50073,11.80799,46.50073],"geometry":{"type":"Point","coordinates":[11.80799,46.50073]},"properties":{"name":"Sas de Pordoi","lengthKm":0,"anchor":[11.80799,46.50073],"wikidata":"Q2225709","ele":2950}},{"type":"Feature","id":"node/3676444925","bbox":[11.59641,46.23531,11.59641,46.23531],"geometry":{"type":"Point","coordinates":[11.59641,46.23531]},"properties":{"name":"Monte Cauriol","lengthKm":0,"anchor":[11.59641,46.23531],"wikidata":"Q3861427","ele":2494}},{"type":"Feature","id":"node/3700033257","bbox":[11.22188,45.84905,11.22188,45.84905],"geometry":{"type":"Point","coordinates":[11.22188,45.84905]},"properties":{"name":"Monte Maggio","lengthKm":0,"anchor":[11.22188,45.84905],"wikidata":"Q16579632","ele":1852}},{"type":"Feature","id":"node/3721301759","bbox":[10.7325,46.23726,10.7325,46.23726],"geometry":{"type":"Point","coordinates":[10.7325,46.23726]},"properties":{"name":"Cima Giner","lengthKm":0,"anchor":[10.7325,46.23726],"wikidata":"Q31643331","ele":2956}},{"type":"Feature","id":"node/4222709306","bbox":[11.41407,46.01698,11.41407,46.01698],"geometry":{"type":"Point","coordinates":[11.41407,46.01698]},"properties":{"name":"Colle della Stanga","lengthKm":0,"anchor":[11.41407,46.01698],"wikidata":"Q31677514","ele":1534}},{"type":"Feature","id":"node/4413738972","bbox":[10.97767,46.1006,10.97767,46.1006],"geometry":{"type":"Point","coordinates":[10.97767,46.1006]},"properties":{"name":"Monte Ranzo","lengthKm":0,"anchor":[10.97767,46.1006],"wikidata":"Q31634576","ele":1835}},{"type":"Feature","id":"node/4635996528","bbox":[10.91432,46.15013,10.91432,46.15013],"geometry":{"type":"Point","coordinates":[10.91432,46.15013]},"properties":{"name":"Monte Daino","lengthKm":0,"anchor":[10.91432,46.15013],"wikidata":"Q31356203","ele":2657}},{"type":"Feature","id":"node/4679611153","bbox":[10.89307,46.15559,10.89307,46.15559],"geometry":{"type":"Point","coordinates":[10.89307,46.15559]},"properties":{"name":"Cima Brenta Bassa","lengthKm":0,"anchor":[10.89307,46.15559],"wikidata":"Q31356380","ele":2812}},{"type":"Feature","id":"node/4803591955","bbox":[11.08506,46.09549,11.08506,46.09549],"geometry":{"type":"Point","coordinates":[11.08506,46.09549]},"properties":{"name":"Soprasasso","lengthKm":0,"anchor":[11.08506,46.09549],"wikidata":"Q3964993","ele":807}},{"type":"Feature","id":"node/4804259471","bbox":[10.89807,45.98743,10.89807,45.98743],"geometry":{"type":"Point","coordinates":[10.89807,45.98743]},"properties":{"name":"Monte Brento","lengthKm":0,"anchor":[10.89807,45.98743],"wikidata":"Q49967511","ele":1545}},{"type":"Feature","id":"node/6252464827","bbox":[11.26694,45.96554,11.26694,45.96554],"geometry":{"type":"Point","coordinates":[11.26694,45.96554]},"properties":{"name":"Monte Cimon","lengthKm":0,"anchor":[11.26694,45.96554],"wikidata":"Q31222409","ele":1525}}]}
