{"type":"FeatureCollection","features":[{"type":"Feature","id":"way/338435915","bbox":[10.64055,45.93973,10.7932,46.05679],"geometry":{"type":"LineString","coordinates":[[10.64055,45.93973],[10.64059,45.93998],[10.64067,45.94052],[10.64072,45.94076],[10.64077,45.94097],[10.64081,45.94118],[10.6408,45.94139],[10.64079,45.94155],[10.6408,45.94171],[10.64109,45.94221],[10.64115,45.94236],[10.64116,45.9425],[10.64118,45.94279],[10.64126,45.94306],[10.64144,45.94325],[10.64174,45.94338],[10.64276,45.94369],[10.6433,45.9439],[10.64375,45.94417],[10.64414,45.94464],[10.64424,45.94475],[10.64443,45.94491],[10.64463,45.94514],[10.64499,45.94567],[10.64547,45.94674],[10.64562,45.94703],[10.64567,45.9472],[10.64572,45.94735],[10.64589,45.94758],[10.64627,45.94822],[10.64633,45.94832],[10.6465,45.94845],[10.64679,45.94857],[10.64685,45.94863],[10.64695,45.94886],[10.64707,45.949],[10.64724,45.94916],[10.6475,45.94937],[10.64761,45.94946],[10.64774,45.94957],[10.64784,45.94976],[10.64799,45.94991],[10.64853,45.95019],[10.64883,45.95039],[10.64901,45.95048],[10.64924,45.95066],[10.64935,45.95081],[10.64962,45.95114],[10.64991,45.9515],[10.65013,45.95185],[10.65029,45.95219],[10.65033,45.95228],[10.65048,45.95262],[10.65061,45.95299],[10.6508,45.95332],[10.65102,45.95374],[10.6513,45.9542],[10.65132,45.95423],[10.65144,45.95441],[10.65159,45.95465],[10.65178,45.95491],[10.65198,45.95537],[10.65203,45.95557],[10.65212,45.95602],[10.65221,45.95625],[10.65226,45.95651],[10.65262,45.9571],[10.65291,45.95752],[10.65308,45.95768],[10.65363,45.9582],[10.65378,45.95831],[10.65397,45.95844],[10.65419,45.95859],[10.65441,45.95873],[10.65471,45.95894],[10.65478,45.95901],[10.65508,45.95931],[10.65518,45.95951],[10.65521,45.95958],[10.65523,45.95969],[10.65524,45.95978],[10.65525,45.96001],[10.65542,45.96033],[10.65547,45.9604],[10.65576,45.9607],[10.6561,45.96087],[10.65629,45.96094],[10.65675,45.96112],[10.65689,45.96119],[10.65703,45.96128],[10.65726,45.96148],[10.65737,45.96158],[10.65775,45.96198],[10.65791,45.96208],[10.6583,45.96229],[10.65858,45.96241],[10.6587,45.96245],[10.65876,45.96248],[10.65879,45.96249],[10.65885,45.9625],[10.65888,45.9625],[10.65906,45.96253],[10.65915,45.96256],[10.65922,45.96261],[10.65938,45.96276],[10.65961,45.96301],[10.65968,45.96309],[10.65996,45.96337],[10.66004,45.96347],[10.66007,45.96357],[10.66013,45.96389],[10.66016,45.96396],[10.66021,45.964],[10.66031,45.96409],[10.6604,45.96421],[10.66041,45.96442],[10.6605,45.96455],[10.6607,45.9647],[10.66077,45.96476],[10.66103,45.96503],[10.66121,45.96523],[10.66153,45.96551],[10.66158,45.96554],[10.6619,45.96568],[10.66216,45.96586],[10.66239,45.96605],[10.66268,45.96626],[10.66303,45.96654],[10.66325,45.9668],[10.66345,45.96713],[10.6636,45.9675],[10.66382,45.96778],[10.66391,45.96787],[10.66404,45.96796],[10.66453,45.96827],[10.66459,45.96834],[10.66464,45.96843],[10.66466,45.96851],[10.66467,45.96861],[10.66468,45.96869],[10.66467,45.96891],[10.66467,45.96894],[10.66468,45.96897],[10.6648,45.96911],[10.66485,45.96918],[10.66489,45.96923],[10.66501,45.96933],[10.66511,45.96946],[10.66522,45.96984],[10.66529,45.97034],[10.66547,45.97062],[10.66576,45.97093],[10.66619,45.97119],[10.66646,45.97141],[10.66672,45.97166],[10.66681,45.9719],[10.66677,45.97226],[10.66684,45.97244],[10.66683,45.97279],[10.66666,45.97308],[10.66662,45.97332],[10.66677,45.97366],[10.66692,45.97411],[10.66689,45.97468],[10.66704,45.97511],[10.66755,45.9755],[10.66781,45.97572],[10.66815,45.97622],[10.66814,45.97666],[10.66832,45.97705],[10.67547,45.98459],[10.67886,45.98642],[10.67938,45.98687],[10.68053,45.98789],[10.68078,45.98811],[10.69132,45.99713],[10.69196,45.99769],[10.69717,46.00258],[10.6972,46.00269],[10.69694,46.00313],[10.69703,46.00327],[10.69714,46.00338],[10.69739,46.00351],[10.69799,46.00362],[10.69815,46.00373],[10.69845,46.00439],[10.69863,46.00453],[10.69893,46.00466],[10.69974,46.005],[10.69996,46.0051],[10.70031,46.0052],[10.70061,46.00532],[10.70082,46.0055],[10.70096,46.00569],[10.70109,46.00603],[10.70119,46.00631],[10.70129,46.00639],[10.70165,46.00653],[10.70193,46.00659],[10.70209,46.00668],[10.70231,46.0068],[10.70261,46.00701],[10.70281,46.00727],[10.70299,46.00759],[10.70313,46.00783],[10.70356,46.00809],[10.70383,46.00843],[10.70395,46.00882],[10.70411,46.00935],[10.70422,46.00948],[10.70438,46.00961],[10.70453,46.00967],[10.70477,46.00974],[10.70511,46.00983],[10.70557,46.01006],[10.70568,46.01023],[10.70601,46.01052],[10.7061,46.01078],[10.70599,46.01102],[10.70592,46.01125],[10.7059,46.01136],[10.70602,46.01149],[10.70614,46.01164],[10.7061,46.012],[10.7061,46.01203],[10.70613,46.01214],[10.70625,46.01225],[10.70644,46.0123],[10.70662,46.01235],[10.70685,46.01248],[10.70698,46.01258],[10.707,46.01283],[10.7071,46.013],[10.70715,46.01309],[10.70727,46.01321],[10.70745,46.01329],[10.70783,46.01338],[10.70812,46.0134],[10.7087,46.01341],[10.70899,46.01349],[10.70926,46.01363],[10.70938,46.01373],[10.70949,46.01398],[10.70964,46.01413],[10.70977,46.01427],[10.70985,46.01465],[10.70986,46.01487],[10.70992,46.01501],[10.71003,46.01513],[10.71027,46.0152],[10.71072,46.01532],[10.71092,46.01546],[10.71094,46.01554],[10.71094,46.01569],[10.71092,46.01583],[10.71088,46.01599],[10.71079,46.01617],[10.71078,46.01629],[10.71076,46.01656],[10.71083,46.01678],[10.71104,46.01687],[10.71112,46.0169],[10.71161,46.01687],[10.71194,46.01688],[10.71224,46.01707],[10.71241,46.0173],[10.71344,46.01826],[10.71353,46.01834],[10.7136,46.01841],[10.7136,46.01859],[10.72332,46.02721],[10.72624,46.02962],[10.73075,46.0338],[10.75731,46.04602],[10.7932,46.05679]]},"properties":{"name":"Giudicarie","lengthKm":18.61,"anchor":[10.70295,46.00751],"wikidata":"Q465159"}},{"type":"Feature","id":"way/338436157","bbox":[10.82411,45.5697,11.12489,46.00237],"geometry":{"type":"LineString","coordinates":[[11.12489,46.00237],[11.10821,45.98217],[11.10288,45.95838],[11.09943,45.94302],[11.09475,45.93737],[11.08908,45.93006],[11.07113,45.92382],[11.0525,45.91662],[11.04215,45.90894],[11.04016,45.90633],[11.0356,45.90035],[11.02554,45.88714],[11.02472,45.88629],[11.02421,45.88576],[11.00517,45.86588],[11.00407,45.84773],[11.00163,45.83107],[11.00553,45.81985],[11.01529,45.80556],[11.01773,45.794],[11.0148,45.78038],[11.00748,45.76507],[11.00109,45.75838],[11.00097,45.75826],[10.99284,45.74975],[10.97576,45.73953],[10.95396,45.73359],[10.9441,45.72847],[10.93917,45.71603],[10.91623,45.69422],[10.88831,45.64657],[10.85035,45.60279],[10.83424,45.58533],[10.82411,45.5697]]},"properties":{"name":"Val Lagarina","lengthKm":56.8,"anchor":[11.01463,45.78003]}},{"type":"Feature","id":"way/338438408","bbox":[11.66064,46.37875,11.76898,46.47881],"geometry":{"type":"LineString","coordinates":[[11.66064,46.37875],[11.67109,46.39674],[11.67737,46.41273],[11.68848,46.42817],[11.69685,46.44241],[11.69944,46.45159],[11.70084,46.45398],[11.70293,46.45622],[11.70755,46.4599],[11.71373,46.46255],[11.7177,46.46425],[11.7308,46.46847],[11.73873,46.47401],[11.74485,46.47732],[11.75062,46.47865],[11.75795,46.47881],[11.76299,46.47848],[11.76898,46.47712]]},"properties":{"name":"Val di Fassa","lengthKm":15.17,"anchor":[11.69666,46.44209],"wikidata":"Q1397570"}},{"type":"Feature","id":"way/338439609","bbox":[11.21787,45.97126,11.68651,46.06647],"geometry":{"type":"LineString","coordinates":[[11.21787,46.06647],[11.22837,46.05703],[11.23747,46.04023],[11.24931,46.0313],[11.2603,46.02152],[11.27953,46.00376],[11.32992,46.00802],[11.35929,46.01668],[11.37517,46.02137],[11.40741,46.038],[11.43432,46.04888],[11.46674,46.05269],[11.49021,46.05544],[11.52599,46.05155],[11.5532,46.04395],[11.57952,46.02999],[11.59301,46.02248],[11.60869,46.01783],[11.63512,46.01213],[11.65256,46.00617],[11.66439,45.99898],[11.67386,45.98768],[11.67797,45.98234],[11.68136,45.97795],[11.68651,45.97126]]},"properties":{"name":"Valsugana","lengthKm":44.76,"anchor":[11.44247,46.04983],"wikidata":"Q1683655"}},{"type":"Feature","id":"way/338444645","bbox":[11.80414,46.17906,11.83252,46.25771],"geometry":{"type":"LineString","coordinates":[[11.80414,46.25771],[11.80825,46.24668],[11.81045,46.23479],[11.8105,46.23471],[11.81067,46.23357],[11.81098,46.23245],[11.811,46.23238],[11.81394,46.22161],[11.81669,46.21467],[11.82309,46.20174],[11.82701,46.19323],[11.82788,46.19165],[11.83093,46.18491],[11.83195,46.18143],[11.83237,46.18001],[11.83252,46.17906]]},"properties":{"name":"Val di Primiero","lengthKm":9.04,"anchor":[11.81541,46.21788],"wikidata":"Q2252934"}},{"type":"Feature","id":"way/338445302","bbox":[11.62543,46.14981,11.72836,46.21564],"geometry":{"type":"LineString","coordinates":[[11.62543,46.21564],[11.63787,46.21084],[11.65503,46.20859],[11.67509,46.19652],[11.68149,46.19267],[11.68797,46.18733],[11.69822,46.1754],[11.70399,46.17057],[11.71031,46.16612],[11.71704,46.16203],[11.72163,46.15878],[11.72499,46.15518],[11.72638,46.15444],[11.72836,46.14981]]},"properties":{"name":"Valle del Vanoi","lengthKm":11.19,"anchor":[11.68531,46.18952],"wikidata":"Q4008144"}},{"type":"Feature","id":"way/338445794","bbox":[11.28479,46.08409,11.37364,46.13007],"geometry":{"type":"LineString","coordinates":[[11.37364,46.12746],[11.36826,46.12952],[11.36308,46.13007],[11.35628,46.12952],[11.35145,46.12809],[11.34587,46.12742],[11.33852,46.12746],[11.33653,46.12678],[11.33473,46.1255],[11.33313,46.12378],[11.33039,46.12136],[11.32703,46.11989],[11.32208,46.11816],[11.3155,46.11521],[11.3131,46.11352],[11.30963,46.11085],[11.30726,46.10813],[11.30561,46.10591],[11.30409,46.10345],[11.30401,46.10332],[11.3031,46.10185],[11.29948,46.09716],[11.29729,46.0947],[11.29291,46.09179],[11.29233,46.0914],[11.28479,46.08409]]},"properties":{"name":"Valle dei Mocheni","lengthKm":9.32,"anchor":[11.3202,46.11731],"wikidata":"Q31229"}},{"type":"Feature","id":"way/338446398","bbox":[10.68533,46.31426,10.72556,46.35772],"geometry":{"type":"LineString","coordinates":[[10.68533,46.35772],[10.697,46.34832],[10.70316,46.33892],[10.7064,46.33087],[10.71353,46.32326],[10.72556,46.31426]]},"properties":{"name":"Val di Peio","lengthKm":5.82,"anchor":[10.70451,46.33556],"wikidata":"Q4007503"}},{"type":"Feature","id":"way/338446588","bbox":[10.74305,46.35975,10.91368,46.46397],"geometry":{"type":"LineString","coordinates":[[10.74305,46.46397],[10.76446,46.45459],[10.769,46.45128],[10.76677,46.44217],[10.77167,46.42407],[10.77484,46.41774],[10.79613,46.40822],[10.82091,46.40847],[10.83392,46.40579],[10.84579,46.40123],[10.84908,46.39883],[10.85355,46.39556],[10.86246,46.38564],[10.86907,46.37856],[10.87857,46.37279],[10.89156,46.36811],[10.89348,46.36719],[10.89955,46.36466],[10.90384,46.36293],[10.90472,46.36259],[10.91368,46.35975]]},"properties":{"name":"Val di Rabbi","lengthKm":19.33,"anchor":[10.81505,46.40841],"wikidata":"Q4007505"}},{"type":"Feature","id":"way/338446899","bbox":[10.66461,46.28024,10.97229,46.3798],"geometry":{"type":"LineString","coordinates":[[10.66461,46.28024],[10.67512,46.28806],[10.69628,46.29845],[10.7138,46.30459],[10.71544,46.30516],[10.73434,46.30976],[10.75178,46.31117],[10.75571,46.3113],[10.75691,46.31134],[10.78257,46.31207],[10.82665,46.31744],[10.85744,46.32192],[10.87324,46.32647],[10.87462,46.32684],[10.87948,46.32874],[10.88953,46.33266],[10.90184,46.33937],[10.91773,46.35123],[10.93815,46.36264],[10.94281,46.36511],[10.94294,46.36517],[10.94301,46.36524],[10.94453,46.36604],[10.95041,46.36912],[10.97229,46.3798]]},"properties":{"name":"Val di Sole","lengthKm":26.94,"anchor":[10.82597,46.31736],"wikidata":"Q382552"}},{"type":"Feature","id":"way/338447122","bbox":[11.03962,46.23139,11.06909,46.3883],"geometry":{"type":"LineString","coordinates":[[11.03962,46.3883],[11.04815,46.37838],[11.05635,46.36025],[11.05891,46.34876],[11.05945,46.33799],[11.05864,46.32825],[11.05856,46.32236],[11.06006,46.31653],[11.06257,46.31058],[11.06424,46.30462],[11.06332,46.29867],[11.06224,46.29428],[11.06014,46.28671],[11.05989,46.28301],[11.06073,46.27873],[11.06207,46.27318],[11.0624,46.26485],[11.06148,46.25976],[11.05998,46.25219],[11.05922,46.24189],[11.06006,46.23709],[11.06215,46.23327],[11.06408,46.23188],[11.06909,46.23139]]},"properties":{"name":"Val di Non","lengthKm":18.27,"anchor":[11.06297,46.30914],"wikidata":"Q261523"}},{"type":"Feature","id":"way/338448001","bbox":[10.71469,46.0571,10.76583,46.17184],"geometry":{"type":"LineString","coordinates":[[10.76038,46.17184],[10.761,46.16922],[10.76103,46.16911],[10.76484,46.15304],[10.76501,46.15232],[10.76583,46.14807],[10.76547,46.13866],[10.76117,46.1277],[10.75397,46.11489],[10.74468,46.10458],[10.73619,46.09412],[10.73385,46.09123],[10.72605,46.08001],[10.71844,46.06799],[10.71469,46.0571]]},"properties":{"name":"Val Rendena","lengthKm":13.66,"anchor":[10.75181,46.11249],"wikidata":"Q4007393"}},{"type":"Feature","id":"way/338448004","bbox":[10.89002,45.92082,10.95071,46.0475],"geometry":{"type":"MultiLineString","coordinates":[[[10.89002,45.92082],[10.89017,45.9211],[10.89058,45.92136],[10.89067,45.92143],[10.89089,45.92162],[10.89111,45.92182],[10.89133,45.92213],[10.89156,45.92231],[10.89195,45.92274],[10.89231,45.92349],[10.89238,45.92377],[10.89242,45.92403],[10.89249,45.92421],[10.89254,45.92436],[10.8926,45.92446],[10.89289,45.9249],[10.89322,45.92527],[10.89332,45.92544],[10.89344,45.92564],[10.89353,45.92592],[10.89354,45.92612],[10.89348,45.92634],[10.89336,45.92668],[10.89311,45.92744],[10.89292,45.92803],[10.89285,45.92874],[10.89293,45.92944],[10.89298,45.92963],[10.89335,45.93068],[10.89342,45.93078],[10.89368,45.93109],[10.89378,45.93127],[10.89394,45.93154],[10.89402,45.93176],[10.89408,45.93193],[10.89431,45.93285],[10.89433,45.93295],[10.89443,45.93375],[10.89447,45.93446],[10.89454,45.93492],[10.89481,45.93572],[10.8949,45.93592],[10.89528,45.93656],[10.89539,45.93666],[10.89551,45.93671],[10.89565,45.93676],[10.89575,45.93678],[10.89598,45.93681],[10.89617,45.93683],[10.89652,45.93686],[10.89688,45.93689],[10.89705,45.93692],[10.8972,45.93694],[10.89736,45.93699],[10.89753,45.93705],[10.89847,45.93757],[10.89859,45.93766],[10.89867,45.93775],[10.89874,45.93786],[10.89892,45.93804],[10.89954,45.93852],[10.89973,45.93873],[10.89991,45.93895],[10.9,45.93914],[10.9001,45.93937],[10.90017,45.93961],[10.9002,45.93989],[10.89997,45.94087],[10.89992,45.94112],[10.89985,45.94158],[10.89989,45.9422],[10.89989,45.94225],[10.89994,45.94239],[10.9001,45.94253],[10.90085,45.94311],[10.9013,45.94346],[10.90208,45.94431],[10.90246,45.94483],[10.90249,45.94488],[10.9027,45.94539],[10.90274,45.94559],[10.90273,45.94582],[10.90269,45.9461],[10.90261,45.9464],[10.9025,45.94669],[10.90236,45.94688],[10.90182,45.94749],[10.90154,45.94782],[10.9013,45.9481],[10.90124,45.94817],[10.90093,45.94852],[10.90069,45.9489],[10.90033,45.94919],[10.89979,45.9496],[10.89951,45.94979],[10.89937,45.94988],[10.89922,45.94994],[10.89908,45.94999],[10.89881,45.95002],[10.89868,45.95005],[10.8984,45.95016],[10.89825,45.95022],[10.89809,45.95026],[10.89799,45.95031],[10.8979,45.9504],[10.89784,45.9505],[10.89782,45.95063],[10.89784,45.95073],[10.89788,45.95089],[10.8979,45.95131],[10.89808,45.95202],[10.898,45.95251],[10.898,45.95309],[10.89802,45.95327],[10.89819,45.95377],[10.89914,45.95504],[10.89966,45.95567],[10.89976,45.95585],[10.89982,45.95605],[10.9001,45.95639],[10.90024,45.95674],[10.90033,45.95802],[10.90047,45.95841],[10.90062,45.9586],[10.90087,45.95876],[10.9016,45.9592],[10.90325,45.95993],[10.90434,45.9607],[10.90532,45.96152],[10.90629,45.96252],[10.90681,45.96295],[10.90765,45.96355],[10.90784,45.96367],[10.90798,45.96376],[10.90806,45.9638],[10.90826,45.96388],[10.90868,45.96405],[10.90895,45.96415],[10.90959,45.96429],[10.90975,45.96431],[10.9103,45.96427],[10.91139,45.96406],[10.91142,45.96405],[10.91176,45.96401],[10.91189,45.96401],[10.91201,45.96403],[10.91231,45.96418],[10.91243,45.96425],[10.91366,45.96509],[10.91527,45.96594],[10.91631,45.96648],[10.91665,45.96661],[10.91721,45.96678],[10.91794,45.96696],[10.91862,45.96719],[10.91898,45.96739],[10.91909,45.96747],[10.91916,45.96754],[10.91928,45.96769],[10.91968,45.96801],[10.92008,45.96832],[10.92058,45.96862],[10.92074,45.96868],[10.92095,45.96874],[10.92132,45.96879],[10.92158,45.9688],[10.92184,45.96878],[10.92201,45.96876],[10.9226,45.9686],[10.92365,45.96833],[10.92415,45.96818],[10.92435,45.96816],[10.92456,45.96819],[10.9247,45.96825],[10.92474,45.96828],[10.92477,45.96831],[10.92482,45.96839],[10.92488,45.96871],[10.92489,45.96892],[10.92489,45.96907],[10.92486,45.96923],[10.9248,45.96991],[10.9248,45.96997],[10.92485,45.97024],[10.9252,45.97079],[10.92523,45.97082],[10.92535,45.97089],[10.92592,45.97129],[10.92604,45.97135],[10.92637,45.97154],[10.92669,45.97184],[10.92677,45.97192],[10.92686,45.97201],[10.92703,45.97228],[10.92713,45.97261],[10.92709,45.9731],[10.92696,45.97326],[10.92692,45.97338],[10.92686,45.97345],[10.92679,45.97354],[10.92676,45.9736],[10.92677,45.97368],[10.92673,45.97381],[10.9267,45.9739],[10.9267,45.97394],[10.92677,45.97403],[10.92678,45.97407],[10.92678,45.97413],[10.92667,45.97445],[10.92666,45.97458],[10.92667,45.97477],[10.92661,45.97499],[10.92635,45.97594],[10.9263,45.97633],[10.92625,45.97647],[10.92621,45.97655],[10.92616,45.97659],[10.92592,45.9768],[10.92557,45.97723],[10.92544,45.97735],[10.92509,45.97766],[10.92454,45.97798],[10.92442,45.97806],[10.92434,45.97815],[10.92426,45.9783],[10.92407,45.97868],[10.92394,45.9793],[10.92393,45.97936],[10.92399,45.97951],[10.92405,45.97971],[10.92447,45.98009],[10.92483,45.98039],[10.92485,45.98046],[10.92484,45.98053],[10.92496,45.98099],[10.92498,45.98108],[10.92511,45.98118],[10.92564,45.98146],[10.92635,45.98203],[10.92656,45.98226],[10.92666,45.98239],[10.92674,45.98263],[10.92685,45.98276],[10.92702,45.9829],[10.92712,45.98297],[10.92719,45.98308],[10.92732,45.98341],[10.92734,45.98353],[10.9273,45.98484],[10.92729,45.98504],[10.92735,45.98533],[10.92754,45.98565],[10.92771,45.9859],[10.92778,45.98607],[10.92778,45.98608],[10.92785,45.98631],[10.92786,45.98635],[10.92786,45.98641],[10.92784,45.9865],[10.92783,45.98661],[10.92776,45.98729],[10.92772,45.98757],[10.92766,45.98821],[10.92778,45.98858],[10.92779,45.9888],[10.92753,45.98913],[10.9275,45.98918],[10.92742,45.9894],[10.92742,45.98951],[10.92747,45.98965],[10.92748,45.98982],[10.92749,45.99007],[10.92742,45.99019],[10.9274,45.99024],[10.92739,45.99027],[10.92739,45.9903],[10.92739,45.99035],[10.92739,45.9904],[10.92745,45.99048],[10.92745,45.99057],[10.92741,45.9907],[10.92736,45.99074],[10.92729,45.9908],[10.92729,45.9909],[10.92731,45.99098],[10.92734,45.99103],[10.92735,45.99109],[10.92733,45.99115],[10.92732,45.99128],[10.92732,45.99136],[10.92735,45.99144],[10.9274,45.99152],[10.92745,45.99158],[10.92755,45.99167],[10.92758,45.9917],[10.92763,45.99172],[10.92774,45.99174],[10.92781,45.99179],[10.9279,45.99194],[10.92803,45.99206],[10.92812,45.99213],[10.92816,45.99224],[10.92815,45.99237],[10.92809,45.99249],[10.92817,45.99273],[10.92863,45.99355],[10.9284,45.994],[10.92768,45.99445],[10.92746,45.99512],[10.92744,45.99541],[10.92752,45.99565],[10.92763,45.996],[10.9276,45.99629],[10.92754,45.99638],[10.92745,45.99651],[10.92731,45.99668],[10.92714,45.9968],[10.92691,45.99692],[10.92674,45.99705],[10.92617,45.99766],[10.92591,45.99787],[10.9258,45.9981],[10.92585,45.99828],[10.92619,45.99856],[10.92651,45.99884],[10.92708,45.99906],[10.92735,45.99933],[10.9273,45.99972],[10.92714,45.99998],[10.92665,46.00036],[10.92642,46.0007],[10.92636,46.0009],[10.92641,46.0011],[10.92649,46.00121],[10.92658,46.0013],[10.92679,46.00144],[10.92752,46.00194],[10.92887,46.00267],[10.92978,46.00276],[10.93094,46.00281],[10.93189,46.00311],[10.93276,46.00352],[10.93314,46.00394],[10.93339,46.00437],[10.9338,46.00509],[10.93406,46.0059],[10.9343,46.00624],[10.93444,46.00637],[10.9346,46.00646],[10.93645,46.00722],[10.93694,46.00751],[10.93708,46.00761],[10.93734,46.00795],[10.93765,46.00911],[10.938,46.00948],[10.9381,46.00979],[10.93814,46.0103],[10.9382,46.01052],[10.93827,46.01065],[10.9384,46.01077],[10.93866,46.01096],[10.93953,46.01124],[10.94031,46.01164],[10.94097,46.0118],[10.94121,46.0119],[10.9415,46.01218],[10.94171,46.01246],[10.94206,46.01275],[10.9432,46.01521],[10.94341,46.01566],[10.94351,46.01585],[10.94379,46.01626],[10.94387,46.01652],[10.94397,46.01686],[10.94404,46.01699],[10.94406,46.01709],[10.94411,46.01743],[10.94419,46.01803],[10.94426,46.01823],[10.94436,46.01841],[10.94463,46.01877],[10.94498,46.01908],[10.94534,46.01917],[10.94564,46.0192],[10.94579,46.01923],[10.94598,46.01929],[10.94611,46.01939],[10.94617,46.01943],[10.94626,46.01949]],[[10.94626,46.01949],[10.94631,46.01956],[10.94639,46.01976],[10.94659,46.01998],[10.94716,46.02047],[10.94748,46.02074],[10.94807,46.02137],[10.94834,46.02165],[10.94853,46.02188],[10.94865,46.02216],[10.94883,46.02259],[10.94899,46.02285],[10.9495,46.02351],[10.94977,46.02385],[10.95045,46.02468],[10.95066,46.0253],[10.95071,46.02556],[10.95065,46.0261],[10.95052,46.0267],[10.95033,46.02733],[10.95015,46.0276],[10.94994,46.02782],[10.94958,46.02834],[10.94942,46.02867],[10.9492,46.02914],[10.94892,46.02956],[10.94889,46.02966],[10.94883,46.02986],[10.94865,46.03012],[10.94861,46.03028],[10.94852,46.03042],[10.94834,46.03059],[10.94826,46.03067],[10.94815,46.03069],[10.94791,46.0307],[10.94776,46.03079],[10.9473,46.03139],[10.94725,46.03169],[10.94723,46.03186],[10.94719,46.03198],[10.94713,46.03212],[10.94682,46.03269],[10.94665,46.0329],[10.94632,46.03347],[10.94621,46.03367],[10.9461,46.03419],[10.94593,46.03447],[10.94571,46.03488],[10.94561,46.03525],[10.94553,46.03628],[10.94557,46.03683],[10.94558,46.03745],[10.9456,46.03788],[10.9456,46.03819],[10.94562,46.03857],[10.94565,46.03873],[10.94566,46.03897],[10.94576,46.03913],[10.94597,46.03946],[10.94664,46.03984],[10.94743,46.04033],[10.94815,46.0408],[10.94853,46.04104],[10.94862,46.04109],[10.94882,46.04123],[10.94904,46.0414],[10.94924,46.04161],[10.94931,46.04169],[10.94946,46.04189],[10.94957,46.04204],[10.94967,46.04246],[10.94979,46.04343],[10.94974,46.04405],[10.9497,46.04433],[10.9496,46.0446],[10.94953,46.04475],[10.9494,46.0449],[10.94938,46.04493],[10.94917,46.04509],[10.94876,46.04542],[10.94786,46.04602],[10.94776,46.04608],[10.94764,46.04616],[10.94732,46.04637],[10.94652,46.0467],[10.94612,46.04687],[10.94495,46.0475]]]},"properties":{"name":"Valle del Sarca","lengthKm":17.57,"anchor":[10.92315,45.96846]}},{"type":"Feature","id":"way/338463159","bbox":[10.56567,45.85147,10.63614,45.9319],"geometry":{"type":"LineString","coordinates":[[10.63614,45.9319],[10.63601,45.93164],[10.6359,45.93138],[10.63569,45.93109],[10.63529,45.93075],[10.63501,45.93044],[10.63472,45.93009],[10.63457,45.92983],[10.6345,45.92973],[10.63444,45.92964],[10.63441,45.92961],[10.63426,45.92945],[10.63417,45.92937],[10.63403,45.92926],[10.63385,45.92914],[10.63359,45.929],[10.63332,45.92887],[10.63313,45.92877],[10.63287,45.92859],[10.63264,45.9284],[10.63258,45.92831],[10.63251,45.92815],[10.6324,45.9279],[10.63228,45.92705],[10.63218,45.92671],[10.63197,45.92604],[10.63183,45.92557],[10.63179,45.9253],[10.63175,45.92516],[10.63142,45.92483],[10.63082,45.92421],[10.63041,45.92369],[10.62999,45.9232],[10.62943,45.92268],[10.62921,45.92251],[10.62905,45.92245],[10.62878,45.92233],[10.62829,45.92213],[10.62773,45.92183],[10.62697,45.92142],[10.62652,45.92116],[10.62631,45.92094],[10.62597,45.92036],[10.62577,45.92004],[10.62567,45.91979],[10.6256,45.91956],[10.62552,45.91931],[10.62542,45.919],[10.62532,45.91866],[10.62522,45.91846],[10.62507,45.91818],[10.6249,45.91795],[10.62445,45.9175],[10.6242,45.91724],[10.6238,45.91698],[10.62321,45.91665],[10.62293,45.91648],[10.62261,45.91628],[10.62242,45.91617],[10.62222,45.916],[10.62208,45.91577],[10.62192,45.91548],[10.62188,45.91536],[10.62179,45.91506],[10.62171,45.91484],[10.62166,45.91463],[10.62161,45.91434],[10.62141,45.91379],[10.62127,45.91351],[10.62101,45.91282],[10.62088,45.91226],[10.62073,45.91174],[10.62052,45.91122],[10.62041,45.91106],[10.62032,45.9107],[10.62025,45.91047],[10.62019,45.91031],[10.62008,45.91015],[10.61992,45.91],[10.61976,45.90987],[10.61931,45.90971],[10.61877,45.90965],[10.6183,45.90957],[10.61795,45.90943],[10.61756,45.90932],[10.61722,45.90919],[10.61698,45.90907],[10.61681,45.90896],[10.61675,45.90892],[10.61652,45.90873],[10.61635,45.90853],[10.61623,45.90832],[10.61605,45.90802],[10.61588,45.90777],[10.61556,45.90737],[10.61515,45.90696],[10.61484,45.90673],[10.6146,45.90659],[10.61429,45.90644],[10.61386,45.90625],[10.61354,45.90614],[10.61324,45.90607],[10.61272,45.90598],[10.61253,45.90596],[10.61235,45.90597],[10.61196,45.90599],[10.61159,45.90606],[10.61103,45.90611],[10.6107,45.90611],[10.60997,45.90609],[10.60971,45.90605],[10.60947,45.90599],[10.60928,45.90591],[10.60917,45.90586],[10.60905,45.90576],[10.60883,45.90536],[10.60884,45.90513],[10.60884,45.90494],[10.60885,45.90479],[10.60892,45.90447],[10.60891,45.9042],[10.60889,45.90378],[10.60899,45.90335],[10.60908,45.90296],[10.6091,45.90272],[10.60912,45.90246],[10.60915,45.90216],[10.60913,45.90175],[10.60909,45.90149],[10.60905,45.90126],[10.60907,45.90104],[10.60922,45.90083],[10.60939,45.90069],[10.60968,45.90055],[10.60995,45.90043],[10.61071,45.90013],[10.61094,45.90002],[10.61114,45.89993],[10.61132,45.89983],[10.61136,45.89978],[10.61145,45.89954],[10.61151,45.8993],[10.6115,45.8991],[10.61127,45.89884],[10.61111,45.8984],[10.61109,45.89832],[10.61107,45.89823],[10.61107,45.89813],[10.61108,45.89802],[10.61107,45.89786],[10.61099,45.89755],[10.61085,45.89729],[10.6107,45.89703],[10.61053,45.89673],[10.61036,45.89646],[10.61015,45.89622],[10.61007,45.89615],[10.60977,45.89594],[10.60961,45.89585],[10.60945,45.89578],[10.60928,45.89572],[10.60898,45.89562],[10.60867,45.89551],[10.60851,45.89544],[10.60821,45.89534],[10.60809,45.8953],[10.608,45.89525],[10.60791,45.89516],[10.6079,45.89509],[10.60769,45.89482],[10.60748,45.89468],[10.60695,45.89417],[10.60665,45.89376],[10.60649,45.89362],[10.60648,45.89359],[10.60642,45.89344],[10.60644,45.89316],[10.60642,45.89299],[10.60635,45.89278],[10.60631,45.89211],[10.60632,45.8919],[10.60635,45.89172],[10.60638,45.89154],[10.60639,45.89148],[10.60633,45.89123],[10.60622,45.89103],[10.60613,45.8909],[10.60602,45.89076],[10.60592,45.89065],[10.60578,45.89055],[10.60561,45.89043],[10.60543,45.89033],[10.6052,45.89026],[10.60493,45.89016],[10.60477,45.89008],[10.60457,45.88996],[10.60432,45.88978],[10.60419,45.88965],[10.60403,45.8895],[10.60391,45.88936],[10.6038,45.88916],[10.60373,45.88898],[10.60365,45.88865],[10.60355,45.88834],[10.60353,45.88821],[10.60354,45.88805],[10.60345,45.88769],[10.6035,45.88734],[10.6035,45.88721],[10.60344,45.8871],[10.60335,45.88695],[10.60328,45.88686],[10.60299,45.88665],[10.6028,45.88653],[10.60265,45.88644],[10.60246,45.88633],[10.60193,45.88614],[10.60125,45.8859],[10.60098,45.88577],[10.60068,45.88566],[10.60034,45.88553],[10.60023,45.88548],[10.60015,45.88543],[10.6001,45.88537],[10.60006,45.88531],[10.60001,45.88502],[10.59997,45.88497],[10.59995,45.88493],[10.59987,45.88474],[10.59976,45.88452],[10.59964,45.8843],[10.59953,45.88392],[10.59944,45.88367],[10.59931,45.88345],[10.5992,45.88321],[10.59916,45.88313],[10.59912,45.88304],[10.59905,45.88278],[10.59901,45.88252],[10.59897,45.88239],[10.59892,45.88215],[10.5989,45.88196],[10.59889,45.88155],[10.59885,45.88131],[10.59879,45.88113],[10.59874,45.88091],[10.59875,45.88077],[10.59885,45.88028],[10.59887,45.87991],[10.59879,45.87944],[10.59875,45.87909],[10.5986,45.87872],[10.59851,45.87861],[10.59834,45.87847],[10.5982,45.8784],[10.59802,45.87835],[10.59774,45.87832],[10.59714,45.87833],[10.59697,45.87831],[10.59675,45.87825],[10.5965,45.87813],[10.59628,45.878],[10.59599,45.87785],[10.59568,45.87775],[10.59468,45.87723],[10.59464,45.8772],[10.59413,45.87677],[10.59381,45.87653],[10.59358,45.8763],[10.5934,45.87607],[10.59321,45.87584],[10.59302,45.87558],[10.59271,45.87511],[10.59229,45.8745],[10.59206,45.87418],[10.59177,45.87387],[10.59168,45.87366],[10.59155,45.87354],[10.59142,45.87347],[10.59121,45.87335],[10.59068,45.87319],[10.59052,45.87316],[10.59034,45.87315],[10.5902,45.87316],[10.59,45.87315],[10.58973,45.87317],[10.58948,45.87318],[10.58931,45.87318],[10.58903,45.87317],[10.58882,45.87315],[10.58868,45.87312],[10.58851,45.87307],[10.58837,45.87303],[10.58814,45.87292],[10.58785,45.87273],[10.58771,45.87261],[10.58763,45.87251],[10.58753,45.87232],[10.58734,45.87202],[10.58715,45.87178],[10.58697,45.87152],[10.58682,45.87135],[10.5866,45.87112],[10.58622,45.87065],[10.58613,45.87043],[10.58608,45.87024],[10.58603,45.87007],[10.58591,45.86948],[10.58586,45.86929],[10.58589,45.86892],[10.58584,45.86879],[10.58547,45.86842],[10.58529,45.86829],[10.58509,45.86818],[10.58443,45.86785],[10.58383,45.8675],[10.58333,45.86718],[10.58319,45.86702],[10.58306,45.86689],[10.58288,45.86675],[10.58272,45.86661],[10.58262,45.86645],[10.58255,45.86634],[10.58233,45.86593],[10.58188,45.86532],[10.58175,45.86506],[10.58151,45.86445],[10.58149,45.86422],[10.58144,45.86403],[10.58138,45.86388],[10.58131,45.86379],[10.58126,45.86375],[10.58114,45.86368],[10.58087,45.86357],[10.58071,45.86351],[10.58034,45.86334],[10.57974,45.86308],[10.57966,45.86305],[10.57924,45.86289],[10.57893,45.86276],[10.57879,45.86269],[10.57868,45.86265],[10.57846,45.86258],[10.57816,45.86251],[10.57785,45.86244],[10.57705,45.86223],[10.57661,45.86212],[10.57649,45.86205],[10.57629,45.86196],[10.5762,45.86193],[10.57608,45.8619],[10.57595,45.86182],[10.57569,45.86174],[10.57534,45.86155],[10.5751,45.8614],[10.57496,45.86132],[10.57492,45.86128],[10.57488,45.86125],[10.57484,45.86121],[10.57475,45.8611],[10.57467,45.86098],[10.57458,45.86086],[10.57451,45.86074],[10.57443,45.86061],[10.57436,45.86049],[10.57429,45.86036],[10.57428,45.86032],[10.57428,45.86024],[10.57427,45.86016],[10.57422,45.86009],[10.57418,45.86005],[10.57415,45.86001],[10.5741,45.85997],[10.57407,45.85993],[10.57403,45.85988],[10.57397,45.85985],[10.5739,45.85983],[10.57365,45.85976],[10.57331,45.85965],[10.57306,45.8595],[10.5729,45.85942],[10.57257,45.85927],[10.57229,45.85915],[10.572,45.85905],[10.5717,45.85896],[10.5715,45.85892],[10.57128,45.85886],[10.57087,45.85872],[10.57065,45.85864],[10.57048,45.85857],[10.57003,45.85841],[10.56987,45.85834],[10.56964,45.8582],[10.56946,45.85807],[10.56917,45.85784],[10.56896,45.85762],[10.56886,45.85756],[10.56873,45.85746],[10.56861,45.85735],[10.56851,45.85723],[10.56841,45.85713],[10.56831,45.85701],[10.56823,45.85684],[10.56817,45.85672],[10.568,45.85633],[10.56792,45.85611],[10.56785,45.8559],[10.56782,45.85576],[10.56773,45.85542],[10.56772,45.85532],[10.56769,45.85515],[10.56766,45.85497],[10.56766,45.8548],[10.5677,45.85453],[10.56772,45.85434],[10.56773,45.85428],[10.56775,45.85418],[10.56775,45.85402],[10.56767,45.85384],[10.56751,45.85354],[10.56744,45.85342],[10.56738,45.85334],[10.56728,45.85322],[10.56714,45.85305],[10.56672,45.85259],[10.56649,45.85237],[10.56637,45.85232],[10.56627,45.85229],[10.56614,45.85224],[10.56609,45.85219],[10.56605,45.85217],[10.566,45.85213],[10.56597,45.8521],[10.56593,45.85206],[10.56585,45.85199],[10.56575,45.85187],[10.56567,45.85175],[10.56572,45.85147]]},"properties":{"name":"Valle del Chiese","lengthKm":11.67,"anchor":[10.60584,45.89059],"wikidata":"Q4008112"}},{"type":"Feature","id":"way/338464569","bbox":[11.01179,45.70929,11.09964,45.75716],"geometry":{"type":"LineString","coordinates":[[11.01179,45.75716],[11.02233,45.75433],[11.02606,45.75277],[11.0284,45.75102],[11.03162,45.74789],[11.03699,45.74478],[11.0438,45.74195],[11.04995,45.73953],[11.05346,45.73783],[11.05702,45.7361],[11.06082,45.73336],[11.06232,45.73167],[11.06553,45.7298],[11.06874,45.72715],[11.07113,45.72488],[11.07576,45.72236],[11.07988,45.71841],[11.08623,45.71409],[11.08703,45.71237],[11.09169,45.71105],[11.09964,45.70929]]},"properties":{"name":"Val di Ronchi","lengthKm":8.88,"anchor":[11.05843,45.73508]}},{"type":"Feature","id":"way/1009118033","bbox":[10.75991,45.97991,10.79767,46.00734],"geometry":{"type":"LineString","coordinates":[[10.79767,46.00734],[10.79444,46.00541],[10.78325,45.99875],[10.76918,45.98814],[10.75991,45.97991]]},"properties":{"name":"Val Marcia","lengthKm":4.23,"anchor":[10.77755,45.99445],"wikidata":"Q1232362"}},{"type":"Feature","id":"way/383345899","bbox":[10.64739,45.86358,10.81209,45.88988],"geometry":{"type":"LineString","coordinates":[[10.64739,45.86554],[10.64989,45.87234],[10.65596,45.87507],[10.66043,45.87705],[10.66259,45.88091],[10.66475,45.88508],[10.67221,45.88605],[10.67731,45.88755],[10.69447,45.88976],[10.69837,45.88933],[10.71207,45.88988],[10.72997,45.888],[10.74242,45.88212],[10.76373,45.87506],[10.76869,45.87253],[10.76987,45.87206],[10.77158,45.87135],[10.77728,45.87008],[10.78105,45.86841],[10.79227,45.86536],[10.79753,45.8651],[10.80148,45.86472],[10.80242,45.86424],[10.80485,45.8636],[10.80804,45.86358],[10.81209,45.86361]]},"properties":{"name":"Valle di Ledro","lengthKm":14.88,"anchor":[10.72485,45.88854],"wikidata":"Q958490"}},{"type":"Feature","id":"way/432112965","bbox":[10.94869,46.26766,11.00266,46.32232],"geometry":{"type":"LineString","coordinates":[[10.94869,46.26766],[10.95337,46.2708],[10.958,46.27768],[10.97058,46.28765],[10.97328,46.29192],[10.97573,46.30022],[10.98624,46.30914],[10.99693,46.31481],[11.00266,46.32232]]},"properties":{"name":"Val di Tovel","lengthKm":7.53,"anchor":[10.97441,46.29573],"wikidata":"Q97496532"}},{"type":"Feature","id":"way/680671130","bbox":[11.06263,45.83406,11.20314,45.8797],"geometry":{"type":"LineString","coordinates":[[11.06263,45.8797],[11.0728,45.87765],[11.08029,45.87674],[11.08452,45.87492],[11.09182,45.87168],[11.10705,45.87235],[11.13162,45.87572],[11.16104,45.87217],[11.18017,45.86482],[11.19146,45.86097],[11.20201,45.85058],[11.20314,45.84076],[11.19781,45.83406]]},"properties":{"name":"Valle di Terragnolo","lengthKm":13.92,"anchor":[11.14915,45.87361],"wikidata":"Q16620138"}},{"type":"Feature","id":"way/680682140","bbox":[10.58524,46.16511,10.74712,46.19819],"geometry":{"type":"LineString","coordinates":[[10.58524,46.19475],[10.60945,46.19819],[10.617,46.19801],[10.62429,46.19504],[10.62783,46.19073],[10.63142,46.18637],[10.63756,46.17495],[10.64069,46.17175],[10.65022,46.16759],[10.66635,46.16652],[10.67868,46.16511],[10.69579,46.16586],[10.70909,46.16741],[10.72111,46.16931],[10.72798,46.17038],[10.73364,46.17163],[10.74051,46.17347],[10.74712,46.17216]]},"properties":{"name":"Val di Genova","lengthKm":14.51,"anchor":[10.65486,46.16728],"wikidata":"Q4007346"}},{"type":"Feature","id":"way/706934554","bbox":[10.94206,45.99107,11.06413,46.13206],"geometry":{"type":"MultiLineString","coordinates":[[[11.05581,46.09787],[11.04203,46.08303],[11.03765,46.08174],[11.03014,46.0796],[11.02753,46.07877],[11.0142,46.07738],[11.00347,46.07695],[10.99797,46.07682],[10.99628,46.07668],[10.9953,46.076],[10.99413,46.07492],[10.98099,46.06409],[10.97668,46.05892],[10.97573,46.05785],[10.96376,46.04799],[10.95602,46.01178],[10.95493,46.00843],[10.94206,45.99107]],[[11.06413,46.13206],[11.0626,46.12876],[11.06259,46.12871],[11.06256,46.12864],[11.06237,46.12811],[11.06186,46.1276],[11.06116,46.12714],[11.06049,46.12683],[11.06029,46.12666],[11.0583,46.12411],[11.03628,46.10718],[11.02706,46.10019],[11.02673,46.10008],[11.02218,46.09751],[11.01944,46.09565],[11.01806,46.0945],[11.01035,46.0886],[11.00221,46.08349],[10.99628,46.07668]]]},"properties":{"name":"Valle dei Laghi","lengthKm":24.45,"anchor":[10.97634,46.05854],"wikidata":"Q4008091"}},{"type":"Feature","id":"way/904420191","bbox":[11.57783,46.35142,11.62563,46.36898],"geometry":{"type":"LineString","coordinates":[[11.62563,46.35142],[11.62165,46.35248],[11.61943,46.35488],[11.61634,46.35607],[11.61397,46.35659],[11.6073,46.36147],[11.60325,46.3628],[11.60042,46.36496],[11.59861,46.36594],[11.59176,46.36719],[11.5806,46.36895],[11.57783,46.36898]]},"properties":{"name":"Valsorda","lengthKm":4.33,"anchor":[11.60361,46.36268],"wikidata":"Q106095562"}},{"type":"Feature","id":"way/904802970","bbox":[11.69921,46.41582,11.7858,46.42706],"geometry":{"type":"LineString","coordinates":[[11.69921,46.42706],[11.70116,46.42337],[11.70302,46.42243],[11.71249,46.41763],[11.71897,46.4174],[11.72546,46.41873],[11.73748,46.42372],[11.74368,46.42406],[11.74913,46.42372],[11.75541,46.42324],[11.76101,46.42133],[11.76621,46.41983],[11.77065,46.4177],[11.77779,46.41594],[11.77793,46.41594],[11.78333,46.41582],[11.7858,46.4168]]},"properties":{"name":"Val san Nicolò - Val de sèn Nicolò","lengthKm":7.54,"anchor":[11.73958,46.42384],"wikidata":"Q4007398"}},{"type":"Feature","id":"way/904805144","bbox":[11.65715,46.4869,11.72837,46.4939],"geometry":{"type":"LineString","coordinates":[[11.72837,46.4869],[11.72464,46.48818],[11.7213,46.49016],[11.71575,46.49141],[11.71299,46.49084],[11.70775,46.49011],[11.70426,46.49098],[11.6977,46.49159],[11.69547,46.49203],[11.69331,46.49246],[11.69157,46.49281],[11.68595,46.49333],[11.68042,46.49349],[11.67441,46.4939],[11.6703,46.49178],[11.66772,46.49134],[11.66568,46.49142],[11.66228,46.49056],[11.65715,46.48844]]},"properties":{"name":"Val Duron","lengthKm":5.82,"anchor":[11.69285,46.49255],"wikidata":"Q2507712"}},{"type":"Feature","id":"way/997098907","bbox":[11.40705,46.11354,11.49968,46.15481],"geometry":{"type":"LineString","coordinates":[[11.40705,46.15191],[11.41334,46.15445],[11.42287,46.15445],[11.42664,46.15445],[11.43222,46.15481],[11.43574,46.15397],[11.439,46.15231],[11.44182,46.15156],[11.44717,46.15076],[11.44978,46.15028],[11.45296,46.14924],[11.4574,46.14795],[11.46075,46.14559],[11.46649,46.14018],[11.46805,46.13872],[11.47011,46.13685],[11.47455,46.1337],[11.47559,46.13279],[11.4789,46.12717],[11.47935,46.12679],[11.4837,46.12313],[11.48776,46.1206],[11.49554,46.11692],[11.49812,46.11522],[11.49968,46.11354]]},"properties":{"name":"Val Calamento","lengthKm":9.22,"anchor":[11.46168,46.14472]}},{"type":"Feature","id":"way/997103491","bbox":[11.49989,46.13249,11.52892,46.16203],"geometry":{"type":"LineString","coordinates":[[11.49989,46.13249],[11.50471,46.14163],[11.51198,46.14989],[11.52048,46.15343],[11.52427,46.15581],[11.52862,46.15961],[11.52892,46.16203]]},"properties":{"name":"Val Campelle","lengthKm":4.12,"anchor":[11.51134,46.14915],"wikidata":"Q28671052"}},{"type":"Feature","id":"way/997107819","bbox":[11.40617,46.16955,11.42312,46.26006],"geometry":{"type":"LineString","coordinates":[[11.41767,46.26006],[11.41544,46.24914],[11.41922,46.23869],[11.41939,46.22064],[11.41934,46.21744],[11.42312,46.21209],[11.42312,46.20918],[11.42025,46.20698],[11.41982,46.19611],[11.42029,46.19201],[11.4199,46.18785],[11.42119,46.18512],[11.42024,46.18295],[11.41853,46.17906],[11.41278,46.17395],[11.40617,46.16955]]},"properties":{"name":"Val Cadino","lengthKm":10.68,"anchor":[11.42251,46.21296]}},{"type":"Feature","id":"way/997366813","bbox":[10.51117,45.94184,10.63545,46.04988],"geometry":{"type":"LineString","coordinates":[[10.51392,46.04988],[10.51117,46.02677],[10.51289,46.01175],[10.51907,46.00006],[10.54069,45.97812],[10.56928,45.96642],[10.59837,45.9521],[10.63545,45.94184]]},"properties":{"name":"Val di Daone","lengthKm":17,"anchor":[10.53999,45.97883],"wikidata":"Q4007488"}},{"type":"Feature","id":"way/997367332","bbox":[10.59181,46.00412,10.68744,46.05694],"geometry":{"type":"LineString","coordinates":[[10.59181,46.05694],[10.61726,46.0482],[10.63097,46.04104],[10.64661,46.02931],[10.66045,46.02071],[10.66629,46.01322],[10.67192,46.007],[10.68207,46.00522],[10.68744,46.00412]]},"properties":{"name":"Val di Breguzzo","lengthKm":9.73,"anchor":[10.64285,46.03213]}},{"type":"Feature","id":"way/997370524","bbox":[10.80675,46.0598,10.82012,46.12584],"geometry":{"type":"LineString","coordinates":[[10.80677,46.12584],[10.80675,46.12316],[10.80686,46.11972],[10.8078,46.11371],[10.81123,46.10561],[10.80917,46.09347],[10.8102,46.08085],[10.81793,46.06966],[10.82012,46.0598]]},"properties":{"name":"Val d'Algone","lengthKm":7.55,"anchor":[10.80926,46.09238],"wikidata":"Q121283106"}},{"type":"Feature","id":"way/997370525","bbox":[10.8778,46.09633,10.88848,46.13973],"geometry":{"type":"LineString","coordinates":[[10.8778,46.13973],[10.88127,46.13512],[10.88432,46.12852],[10.88333,46.11847],[10.88282,46.11394],[10.88436,46.10918],[10.88831,46.10442],[10.88848,46.10085],[10.88711,46.09633]]},"properties":{"name":"Val d'Ambiez","lengthKm":5.04,"anchor":[10.88328,46.11802],"wikidata":"Q110465493"}},{"type":"Feature","id":"way/997437640","bbox":[10.92337,46.1422,10.95543,46.17393],"geometry":{"type":"LineString","coordinates":[[10.92337,46.17393],[10.92608,46.17178],[10.92811,46.17017],[10.92927,46.16831],[10.93603,46.16295],[10.94496,46.15926],[10.94736,46.15516],[10.94788,46.15142],[10.95037,46.14666],[10.95543,46.1422]]},"properties":{"name":"Valle delle Seghe","lengthKm":4.48,"anchor":[10.94346,46.15988],"wikidata":"Q106453150"}},{"type":"Feature","id":"way/997450083","bbox":[10.86076,46.25923,10.87749,46.32085],"geometry":{"type":"LineString","coordinates":[[10.8744,46.32085],[10.87655,46.31653],[10.87749,46.31415],[10.87664,46.31066],[10.87749,46.30817],[10.87638,46.30301],[10.87423,46.29957],[10.87372,46.29731],[10.87398,46.29073],[10.87183,46.28439],[10.8678,46.27863],[10.86651,46.26588],[10.86076,46.25923]]},"properties":{"name":"Val Meledrio","lengthKm":7.16,"anchor":[10.87357,46.28953],"wikidata":"Q28806452"}},{"type":"Feature","id":"way/997450087","bbox":[10.88814,46.4052,11.00624,46.43336],"geometry":{"type":"LineString","coordinates":[[10.88814,46.43336],[10.9053,46.43135],[10.91784,46.42851],[10.92951,46.42626],[10.93998,46.42366],[10.94461,46.41869],[10.95079,46.41277],[10.95749,46.41088],[10.96796,46.40981],[10.97826,46.41029],[10.98701,46.41289],[10.99457,46.4123],[11.00109,46.41088],[11.0047,46.40768],[11.00624,46.4052]]},"properties":{"name":"Valle di Bresimo","lengthKm":10.34,"anchor":[10.94756,46.41587]}},{"type":"Feature","id":"way/997453466","bbox":[11.37531,46.00519,11.46674,46.05269],"geometry":{"type":"LineString","coordinates":[[11.37531,46.00602],[11.38441,46.00638],[11.39402,46.00519],[11.42046,46.00877],[11.43814,46.01449],[11.44999,46.02271],[11.45754,46.03082],[11.45814,46.036],[11.46046,46.04053],[11.46337,46.04738],[11.46674,46.05269]]},"properties":{"name":"Val Sella","lengthKm":9.96,"anchor":[11.4374,46.01425],"wikidata":"Q3553458"}},{"type":"Feature","id":"way/997456690","bbox":[10.9738,45.97215,10.9901,46.05668],"geometry":{"type":"LineString","coordinates":[[10.9901,46.05668],[10.98313,46.04469],[10.98255,46.04405],[10.98052,46.03033],[10.98049,46.02712],[10.98065,46.02555],[10.98135,46.01008],[10.97551,45.99529],[10.97569,45.99455],[10.97763,45.98162],[10.97563,45.97753],[10.97485,45.97545],[10.9738,45.97215]]},"properties":{"name":"valle di Cavedine","lengthKm":9.64,"anchor":[10.98115,46.01448]}},{"type":"Feature","id":"way/997459407","bbox":[10.93497,45.85806,10.98839,45.91653],"geometry":{"type":"LineString","coordinates":[[10.98839,45.91653],[10.98045,45.90664],[10.97792,45.90411],[10.97715,45.90363],[10.95433,45.89246],[10.95324,45.89179],[10.95133,45.89124],[10.94992,45.89041],[10.93912,45.88559],[10.94024,45.87914],[10.93964,45.87813],[10.93947,45.87797],[10.93941,45.8779],[10.93922,45.87778],[10.93919,45.87777],[10.93887,45.87775],[10.9386,45.8777],[10.93833,45.8776],[10.9382,45.8775],[10.93813,45.87742],[10.93819,45.87728],[10.93836,45.87708],[10.9384,45.87699],[10.93834,45.87691],[10.93811,45.87676],[10.93805,45.87669],[10.93802,45.87663],[10.93804,45.87644],[10.93794,45.87603],[10.93789,45.87583],[10.93756,45.87568],[10.93748,45.87543],[10.93785,45.87523],[10.9378,45.87498],[10.93755,45.87487],[10.93745,45.87481],[10.93716,45.87441],[10.93714,45.87436],[10.93712,45.87409],[10.93714,45.87378],[10.93713,45.87372],[10.93705,45.87355],[10.93686,45.87334],[10.93668,45.87318],[10.93651,45.87303],[10.93635,45.87274],[10.93634,45.87273],[10.93631,45.87259],[10.93641,45.87223],[10.93638,45.87204],[10.93636,45.87198],[10.9363,45.87184],[10.93632,45.87154],[10.93626,45.87139],[10.93614,45.87126],[10.93612,45.87096],[10.93614,45.87079],[10.93616,45.8706],[10.93617,45.87042],[10.93614,45.87025],[10.93606,45.86998],[10.93606,45.86994],[10.93606,45.8699],[10.93608,45.86971],[10.9361,45.86954],[10.93623,45.8694],[10.93639,45.86928],[10.93645,45.86919],[10.93647,45.86912],[10.93645,45.86904],[10.93641,45.86895],[10.93633,45.86885],[10.93629,45.8688],[10.9362,45.8687],[10.93619,45.86867],[10.93621,45.86857],[10.93632,45.86845],[10.93631,45.86839],[10.93624,45.8683],[10.93619,45.86822],[10.93623,45.86814],[10.93623,45.86805],[10.9362,45.86798],[10.93621,45.86792],[10.93632,45.86785],[10.93647,45.8678],[10.93655,45.86774],[10.93657,45.8677],[10.93658,45.86752],[10.93659,45.86751],[10.93663,45.86745],[10.93666,45.8674],[10.93665,45.86728],[10.93666,45.86713],[10.93671,45.86706],[10.93674,45.86698],[10.9368,45.86675],[10.9366,45.86639],[10.93657,45.86609],[10.9367,45.86591],[10.9369,45.86575],[10.93721,45.86561],[10.93724,45.86558],[10.93725,45.86554],[10.93728,45.86547],[10.93729,45.86534],[10.93729,45.86522],[10.93729,45.86516],[10.93732,45.8651],[10.93735,45.86499],[10.93738,45.86493],[10.9374,45.86486],[10.93744,45.86481],[10.93756,45.86471],[10.93763,45.86464],[10.93767,45.86457],[10.93767,45.86449],[10.93757,45.86438],[10.93757,45.86426],[10.93755,45.8642],[10.93755,45.86418],[10.93759,45.86414],[10.9376,45.8641],[10.93758,45.86406],[10.93752,45.864],[10.9374,45.8639],[10.93732,45.86386],[10.93725,45.86382],[10.93722,45.8638],[10.93722,45.86377],[10.93727,45.86368],[10.93729,45.86363],[10.93729,45.86357],[10.93728,45.86351],[10.93724,45.86347],[10.93718,45.86342],[10.93706,45.86333],[10.937,45.86325],[10.93699,45.86319],[10.93697,45.86313],[10.93683,45.86302],[10.9366,45.86287],[10.93651,45.86279],[10.93644,45.86271],[10.93631,45.86259],[10.9363,45.86254],[10.93631,45.86249],[10.93637,45.86243],[10.93641,45.86233],[10.93649,45.86216],[10.9365,45.86206],[10.93658,45.86191],[10.93663,45.86186],[10.93674,45.86178],[10.93681,45.86173],[10.93687,45.86168],[10.93696,45.86159],[10.93699,45.8615],[10.93707,45.86138],[10.93708,45.86133],[10.93708,45.86129],[10.93707,45.86126],[10.93706,45.86124],[10.93706,45.86123],[10.93701,45.86113],[10.93689,45.86099],[10.93678,45.86088],[10.93673,45.86078],[10.93663,45.86071],[10.93658,45.86068],[10.93646,45.86064],[10.93628,45.86059],[10.93617,45.86056],[10.93613,45.86055],[10.93597,45.86051],[10.93594,45.86045],[10.93588,45.8604],[10.93582,45.86036],[10.93573,45.86034],[10.93553,45.86031],[10.93545,45.86026],[10.93533,45.8602],[10.93529,45.86015],[10.93528,45.86005],[10.93532,45.85995],[10.93538,45.85987],[10.93537,45.85982],[10.93534,45.85976],[10.93531,45.85962],[10.93523,45.85953],[10.93506,45.85939],[10.93505,45.85926],[10.93511,45.85919],[10.93515,45.85912],[10.93515,45.85902],[10.93511,45.85889],[10.93512,45.85881],[10.93506,45.85879],[10.93497,45.85873],[10.93499,45.85856],[10.93503,45.85843],[10.93515,45.85831],[10.93521,45.85806]]},"properties":{"name":"Val di Gresta","lengthKm":8.71,"anchor":[10.94886,45.88994]}},{"type":"Feature","id":"way/997503633","bbox":[11.84491,46.18421,11.9056,46.24212],"geometry":{"type":"LineString","coordinates":[[11.84491,46.18421],[11.85331,46.18909],[11.85925,46.19253],[11.86671,46.19913],[11.87169,46.20762],[11.87513,46.21309],[11.87626,46.21524],[11.87704,46.21574],[11.87824,46.21647],[11.88008,46.2172],[11.88257,46.21785],[11.88669,46.22076],[11.89098,46.22314],[11.89229,46.22574],[11.89347,46.22902],[11.89478,46.23173],[11.89744,46.23642],[11.9056,46.24212]]},"properties":{"name":"Val Canali","lengthKm":8.21,"anchor":[11.87535,46.21352],"wikidata":"Q4007316"}},{"type":"Feature","id":"way/997507769","bbox":[11.80103,46.1312,11.87656,46.15831],"geometry":{"type":"LineString","coordinates":[[11.80103,46.14351],[11.80275,46.13905],[11.8067,46.13572],[11.81459,46.1312],[11.82275,46.13161],[11.82987,46.13375],[11.83502,46.13607],[11.84498,46.13958],[11.85081,46.13994],[11.85348,46.14238],[11.85674,46.14446],[11.86455,46.14618],[11.86858,46.14815],[11.86901,46.151],[11.87313,46.15516],[11.87656,46.15831]]},"properties":{"name":"Val Noana","lengthKm":7.81,"anchor":[11.83988,46.13779],"wikidata":"Q4007375"}},{"type":"Feature","id":"way/997654864","bbox":[10.83072,46.2036,10.86917,46.20722],"geometry":{"type":"LineString","coordinates":[[10.83072,46.2036],[10.84033,46.20591],[10.84917,46.20722],[10.85647,46.20686],[10.86376,46.20574],[10.86917,46.20526]]},"properties":{"name":"Vallesinella","lengthKm":3.04,"anchor":[10.84968,46.2072],"wikidata":"Q4008220"}},{"type":"Feature","id":"way/997664714","bbox":[11.79434,46.5059,11.81734,46.52054],"geometry":{"type":"LineString","coordinates":[[11.79434,46.5059],[11.79992,46.50767],[11.80541,46.51003],[11.80867,46.51171],[11.80957,46.51248],[11.81056,46.5131],[11.81163,46.51487],[11.81142,46.5188],[11.81322,46.51981],[11.81734,46.52054]]},"properties":{"name":"Val Lasties","lengthKm":2.64,"anchor":[11.80903,46.51202],"wikidata":"Q4007358"}},{"type":"Feature","id":"way/997730868","bbox":[11.06478,46.02838,11.09945,46.03714],"geometry":{"type":"LineString","coordinates":[[11.09945,46.03714],[11.09121,46.03588],[11.08392,46.03451],[11.07885,46.03326],[11.07619,46.03249],[11.07259,46.03225],[11.06821,46.03064],[11.06478,46.02838]]},"properties":{"name":"Valle delle Gole","lengthKm":2.9,"anchor":[11.08129,46.03386],"wikidata":"Q35423487"}},{"type":"Feature","id":"way/998102978","bbox":[11.06684,45.79709,11.10151,45.8728],"geometry":{"type":"LineString","coordinates":[[11.06684,45.8728],[11.06958,45.86156],[11.0689,45.84961],[11.06945,45.84774],[11.07216,45.83861],[11.07662,45.82832],[11.08435,45.82186],[11.08932,45.81253],[11.0955,45.80248],[11.10151,45.79709]]},"properties":{"name":"Vallarsa","lengthKm":9.06,"anchor":[11.07471,45.83273]}},{"type":"Feature","id":"way/1009364550","bbox":[11.40158,46.26629,11.65051,46.36618],"geometry":{"type":"LineString","coordinates":[[11.40158,46.26629],[11.41977,46.27258],[11.45393,46.28172],[11.51058,46.28608],[11.52228,46.28613],[11.53818,46.28189],[11.54369,46.283],[11.5477,46.28181],[11.55483,46.28477],[11.5668,46.28449],[11.57605,46.29166],[11.58577,46.29761],[11.59298,46.30591],[11.60362,46.3314],[11.63074,46.35202],[11.65051,46.36618]]},"properties":{"name":"Val di Fiemme","lengthKm":24.68,"anchor":[11.55434,46.28457],"wikidata":"Q256454"}},{"type":"Feature","id":"way/1009364552","bbox":[11.24262,46.13488,11.32502,46.18245],"geometry":{"type":"LineString","coordinates":[[11.24262,46.13488],[11.25297,46.14134],[11.29429,46.16711],[11.32502,46.18245]]},"properties":{"name":"Altopiano di Piné","lengthKm":8.27,"anchor":[11.28252,46.15977]}},{"type":"Feature","id":"way/1016078561","bbox":[11.11638,46.14361,11.35551,46.26482],"geometry":{"type":"LineString","coordinates":[[11.11638,46.14361],[11.13091,46.15102],[11.15615,46.14926],[11.21754,46.15829],[11.22137,46.16055],[11.2373,46.16997],[11.25339,46.20175],[11.27551,46.20338],[11.28699,46.21304],[11.29967,46.21501],[11.32128,46.24569],[11.35551,46.26482]]},"properties":{"name":"Val di Cembra","lengthKm":25.2,"anchor":[11.24771,46.19054]}},{"type":"Feature","id":"way/1064235002","bbox":[11.5014,46.29512,11.53178,46.33715],"geometry":{"type":"LineString","coordinates":[[11.53178,46.33715],[11.51436,46.32927],[11.50389,46.32346],[11.5014,46.31884],[11.50311,46.31362],[11.50358,46.31065],[11.50397,46.30811],[11.505,46.3004],[11.50612,46.29512]]},"properties":{"name":"Val di Stava","lengthKm":5.84,"anchor":[11.50256,46.321],"wikidata":"Q48805054"}}]}
